Denominazione,Latitudine,Longitudine,Indirizzo,Comune,Tipologia
"Bar Italia",41.8576011657715,12.4512996673584,"Via L. Ruspoli, 23",Roma,Privati
"F.lli Ceccarelli Mario e Sergio",41.8722991943359,12.4807996749878,"Via P. Matteucci 21",Roma,Privati
"Due Emme Bar",42.105598449707,12.4474000930786,"Via Monte Noce, 1",Sacrofano,Privati
"A.S.D. Bracelli Club",41.9136009216309,12.4182205200195,"Via Mattia Battistini, 260",Roma,Pubblici
"ASD De Rossi Fitness & Wellness ",41.8740997314453,12.5235004425049,"Via Appia Nuova 464",Roma,Pubblici
"Pub Il Clown",41.7122001647949,12.3250999450684,"Via Litoranea 22",Roma,Privati
"ABC American Bar & Coffee",41.962100982666,12.518500328064,"Via Pian di Sco, 60 ",Roma,Privati
"Bar L'Appuntamento",42.0346984863281,12.4843997955322,"Via Flaminia, 1805",Roma,Privati
"Torre Spaccata Point",41.8705177307129,12.5768699645996,"via Emilio Macro, 20",Roma,Privati
"Equipe Food",41.902099609375,12.4813003540039,"Piazza San Claudio, 165",Roma,Privati
"Mithos Taverna Così Com'è",41.8742980957031,12.5186004638672,"Via Scipione Ammirato 7",Roma,Privati
"Nuova Polisportiva De Rossi ",41.8706016540527,12.5249004364014,"Via di Vigna Fabbri",Roma,Pubblici
"Club Residence I cieli di Roma",41.7841796875,12.394700050354,"Via Francesca Bertini, 8",Roma,Privati
"Club Residence I cieli di Roma",41.7841796875,12.3948535919189,"Via Francesca Bertini, 8",Roma,Privati
"Municipio di Olevano Romano",41.8606643676758,13.0321817398071,"Via del Municipio","Olevano Romano",Pubblici
"Hotel&Residence T-Village",41.4818992614746,12.5967998504639,"via delle Tamerici 49",Anzio,Privati
"Gran caffè Tirreno",41.9804992675781,12.056300163269,"Via Sergio Angelucci ",Cerveteri,Privati
"WiCoffee BAR",41.9090995788574,12.5371999740601,"Via Cave di Pietralata, 25 ",Roma,Privati
Municipio,41.8064994812012,12.6799001693726,"piazza Marconi",Frascati,Pubblici
Museo,41.6929016113281,13.0235996246338,"Via Lauri 1",Segni,Pubblici
Giardini,42.2100982666016,12.480899810791,"Piazza IV Novembre 1","Rignano Flaminio",Pubblici
"Centro Commerciale Arca di Capena",42.116828918457,12.5906953811646,"Via Tiberina 73 A",Capena,Privati
"Novottica Lacchei",41.7273330688477,12.6593446731567,"Piazza Gramsci 6","Albano Laziale",Privati
"Ristorante El Pueblo",41.9006080627441,12.4397506713867,"Via G. De Vecchi Pieralice 34	",Roma,Privati
"Cinema Adriano - foyer",41.9057006835938,12.4694004058838,"Piazza Cavour 22",Roma,Privati
"Cinema Adriano",41.9059894390393,12.4699501991272,"Piazza Cavour 22",Roma,Privati
"Centro Anziani - Metro B ""Garbatella""",41.8665743002982,12.4839841127396,"Via G. Pullino 97",Roma,Pubblici
"Studio 13 Scuola professionale per truccatori",41.9047012329102,12.4688997268677,"Piazza Cavour 13 ",Roma,Pubblici
"Piazza San Giacomo",42.1963005065918,12.5815000534058,"Piazza San Giacomo","Civitella San Paolo",Pubblici
"Piazza delle rose - Santa Lucia",41.9883003234863,12.6596002578735,"Piazza delle Rose","Fonte Nuova",Pubblici
Municipio,42.1166229248047,12.773512840271,"Piazza Sante Aureli 1",Moricone,Pubblici
"Cup Spallanzani",41.8646430969238,12.4577760696411,"Via Portuense 292",Roma,Pubblici
"nuovo Cardiologia - Ospedale Spallanzani",41.8645095825195,12.4576320648193,"Via Portuense 292",Roma,Pubblici
"Parco Leonardo",41.7972984313965,12.2959003448486,"Via Bramante, 31",Fiumicino,Privati
"Parco Leonardo",41.7971992492676,12.2971000671387,"Via Bramante, 31",Fiumicino,Privati
"Parco Leonardo",41.7983016967773,12.296799659729,"Via Bramante, 31",Fiumicino,Privati
"Parco Leonardo",41.7972984313965,12.296199798584,"Via Bramante, 31",Fiumicino,Privati
"Parco Leonardo",41.7975997924805,12.2966003417969,"Via Bramante, 31",Fiumicino,Privati
"Centro Culturale Lepetit",41.888500213623,12.586199760437,"via roberto lepetit, 86",Roma,Pubblici
"Parco Leonardo",41.7974014282227,12.2969999313354,"Via Bramante, 31",Fiumicino,Privati
"ITC Ruiz",41.8250999450684,12.4732999801636,"Viale Africa, 109",Roma,Pubblici
"Municipio ",41.999698638916,12.726300239563,"Piazza Matteotti","Guidonia Montecelio",Pubblici
Municipio,42.1304664611816,12.1303119659424,"Largo Gioacchino Fara ",Manziana,Pubblici
"Ocean surf",41.9739036560059,12.0460824966431,"Viale Adriatico 4",Cerveteri,Privati
"Scuola Padre Pio - Villaggio Rinascita",41.7709312438965,12.9214649200439,"Piazza Europa",Valmontone,Pubblici
"Biblioteca comunale",41.7304479,13.00716,"Via Leonardo da Vinci",Colleferro,Pubblici
"Casetta Srl",41.7132949829102,12.3196277618408,"Lungomare Amerigo Vespucci 68",Roma,Privati
"Pizzeria da Gigetto",41.9085998535156,12.4889001846313,"Via Alessandria, 43",Roma,Privati
"Centro Sociale Anziani",41.8163375854492,12.7140913009644,"via Vittorio Emanuele II","Monte Porzio Catone",Pubblici
"Centro anziani ""La Torretta""",41.8629989624023,12.5570001602173,"piazza dei consoli",Roma,Pubblici
"Centro Commerciale Le Torri",41.8679008483887,12.6329002380371,"via aspertini 390",Roma,Privati
"Polizia Municipale",41.8846015930176,13.0978002548218,"Via Monteduomo 1",Affile,Pubblici
Pontica,41.9113006591797,13.0241003036499,"Piazza Pontica","Rocca Santo Stefano",Pubblici
Tribunale,42.1007995605469,11.8046998977661,"Via Terme di Traiano",Civitavecchia,Pubblici
Tribunale,42.1011009216309,11.8041000366211,"Via Terme di Traiano",Civitavecchia,Pubblici
Tribunale,42.1013984680176,11.8037996292114,"Via Terme di Traiano",Civitavecchia,Pubblici
"Camping Int. Castelfusano",41.6893081665039,12.3705863952637,"Via Litoranea 132",Roma,Privati
"Parco Leonardo",41.7975006103516,12.2974996566772,"Via Bramante, 31",Fiumicino,Privati
"Centro anziani ""La torretta""",41.8624000549316,12.5565996170044,"piazza dei consoli",Roma,Pubblici
"Centro Anziani Serpentara",41.9626007080078,12.5167999267578,"via pasquariello 26",Roma,Pubblici
"Centro Anziani Primo Maggio",41.9160003662109,12.5614995956421,"via delle messi d'oro 214",Roma,Pubblici
"La fonte del gelato ",41.8004989624023,12.6005001068115,"Piazza della Pace 6",Ciampino,Privati
"Municipio - Sala del Consiglio",42.210147857666,12.4811115264893,"Piazza caduti di tutte le guerre","Rignano Flaminio",Pubblici
"Poliambulatorio - Ospedale Spallanzani",41.8645935058594,12.457576751709,"Via Portuense 292",Roma,Pubblici
"Ospedale Spallanzani",41.864673614502,12.4576854705811,"Via Portuense 292",Roma,Pubblici
"Biblioteca Comunale",42.1166839599609,12.7735576629639,"Piazza sante Aureli 1",Moricone,Pubblici
"Teatro Olimpico ",41.926441192627,12.4615507125854,"piazza Gentile da Fabriano",Roma,Privati
"Complesso Ospedaliero San Giovanni-Addolorata",41.8845638295776,12.5011887550354,"via dell'Amba Aradam",Roma,Pubblici
"Ospedale Spallanzani",41.8656482958879,12.4580091217041,"Via Portuense, 292",Roma,Pubblici
"Farmacia Comunale",42.0910949707031,12.7745733261108,Stazzano,"Palombara Sabina",Pubblici
"F.I.G.C Associazione Italiana Arbitri",41.8956718444824,12.4465246200562,"via Gregorio VII 124",Roma,Pubblici
"Centro anziani Pullino",41.8665008544922,12.4843997955322,"via pullino 97",Roma,Pubblici
"Lavanderia Ondablu",41.9095993041992,12.5199003219604,"via giuseppe de mattheis 3",Roma,Pubblici
"Centro anziani",41.671199798584,12.499400138855,"Via Ovidio,85",Pomezia,Pubblici
Municipio,42.1375617980957,12.8061847686768,"via 4 Novembre","Montorio Romano",Pubblici
"a.s.d Funsport",41.9063987731934,12.413200378418,"via giuseppe de luca 30",Roma,Pubblici
"Comune di Montelanico - Stazione dei Pompieri",41.6491000351175,13.0388689722831,"Viale Roma",Montelanico,Pubblici
"Gelateria Splash",41.8721466064453,12.5277013778687,"via eurialo 102",Roma,Privati
"IFO Istituti Fisioterapici Ospitalieri",41.8027610778809,12.4480209350586,"via Elio Chianesi",Roma,Pubblici
"Emmeci Sport",41.8344497680664,12.5757637023926,"via Pellaro 1",Roma,Pubblici
"Città dell'utopia",41.8541603088379,12.4801692962646,"via valeriano 7",Roma,Pubblici
"Policlinico Umberto I - Direzione",41.9066925048828,12.5099077224731,"Viale del policlinico, 155",Roma,Pubblici
Mattatoio,42.0914916992188,12.5252285003662,"via del campo sportivo",Riano,Pubblici
"Luna Mediterranea ",41.9092254638672,12.4943447113037,"Via Romagna 28",Roma,Privati
"BAR SINCITY - Stazione FS",41.8255882263184,12.8279609680176,"Piazzale della Stazione",Zagarolo,Privati
"Gym Center Sporting Club	",41.8952980041504,12.4382057189941,"Via Anastasio II, 342",Roma,Privati
"VIGAMUS - Museo del Videogames",41.9170722961426,12.4593296051025,"Via Sabotino, 4",Roma,Pubblici
"Circolo sottufficiali Marina Militare ",41.9449919236706,12.4829283465576,"Viale Tor di quinto, 111",Roma,Pubblici
"Istituto ""D'arte Roma 2""",41.9136344488872,12.5610215482711,"Via del Frantoio, 4",Roma,Pubblici
"Sporting club Marconi",41.8667068481445,12.4735193252563,"via Pietro Blaserna 105",Roma,Pubblici
Municipio,42.050365447998,12.963695526123,"Via Carlo Todini, 8","Cineto Romano",Pubblici
"Ristorante La Casina Bianca",42.1589202880859,12.2283973693848,"Via della Rena, 78","Trevignano Romano",Privati
Municipio,41.8873100280762,12.8933620452881,"piazza conti, 4",Poli,Pubblici
"Licenza Municipio",42.0742988586426,12.9016580581665,"Via Don Minzoni, 12",Licenza,Pubblici
"Ristorante da Gabriele",41.9220886230469,12.3744010925293,"Via Boccea, 591",Roma,Privati
Municipio,42.1061325073242,12.4474954605103,"Largo B. Placidi, 1",Sacrofano,Pubblici
"Accademia Filarmonica Romana - Sede",41.9204788208008,12.4723052978516,"Via Flaminia, 118",Roma,Pubblici
"Teatro Ambra Jovinelli",41.8957939147949,12.5079116821289,"via giolitti 287",Roma,Privati
"Istituto Comprensivo",41.882698059082,13.0271072387695,"Via S.Tommaso",Bellegra,Pubblici
"Istituto"" Innocenzo XII""",41.4684600830078,12.6088485717773,"Via Ardeatina, 87",Anzio,Pubblici
"Centro per l'impiego",41.9901669371906,12.0898845177029,"Piazzale Roselle, 9",Cerveteri,Pubblici
Municipio,41.7768548446252,12.9174925684929,"Via Nazionale, 5",Valmontone,Pubblici
Comune,41.8801307678223,13.1141681671143,"Via San Giorgio, 1","Arcinazzo Romano",Pubblici
"IFO - Istituti Fisioterapici Ospitalieri",41.8020820617676,12.4488115310669,"Via Elio Chianesi, 53",Roma,Pubblici
"Istituto ""Democrito""",41.7520713806152,12.3568258285522,"Via Prassilla, 79",Roma,Pubblici
Comune,42.0190277099609,13.1080198287964,"Piazza Roma, 6","Camerata Nuova",Pubblici
"Istituto ""Vailati""",41.7031059265137,12.6788539886475,"Via Achille Grandi, 146","Genzano di Roma",Pubblici
"Istituto ""Vittoria Colonna""",41.8942337036133,12.4732828140259,"Via Arco Del Monte, 99",Roma,Pubblici
"Parco Leonardo",41.7966995239258,12.2957000732422,"Via Bramante, 31",Fiumicino,Privati
"Parco Leonardo",41.7972984313965,12.2954998016357,"Via Bramante, 31",Fiumicino,Privati
"Istituto ""Emilio Sereni""",41.9843597412109,12.5459127426147,"Via della Colonia Agricola, 41",Roma,Pubblici
"Biblioteca Comunale",42.0511016845703,12.614688873291,"Piazza Don Minzoni",Monterotondo,Pubblici
"Data Radio snc",41.9235534667969,12.3744945526123,"via di Selva Candida, 49",Roma,Privati
"Istituto ""Bertrand Russell""",41.8791618347168,12.5219211578369,"Via Tuscolana, 208",Roma,Pubblici
"Istituto ""Cornelio Tacito""",41.9103584289551,12.4529418945312,"Via Giordano Bruno, 4",Roma,Pubblici
"Istituto ""Teresa Gullace Talotta""",41.8600234985352,12.5732002258301,"Piazza Cavalieri del Lavoro, 18",Roma,Pubblici
Municipio,41.8463439941406,12.8946895599365,"Via Vittorio Veneto","Castel San Pietro Romano",Pubblici
"Istituto ""Tullio Levi Civita""",41.8907928466797,12.5488576889038,"Via Torre Annunziata, 13",Roma,Pubblici
"Centro di solidarietà Onlus ""Il Ponte""",42.0988616943359,11.7944955825806,"Via Amba Aradam, 25",Civitavecchia,Pubblici
"Centro di solidarietà Onlus ""Il Ponte""",42.079288482666,11.8156614303589,"Via Veneto, 30",Civitavecchia,Pubblici
"Uffici Comunali - Urbanistica",42.0921784537063,11.8020634651184,"Parco della Resistenza",Civitavecchia,Pubblici
"Ufficio Operatori",42.079216003418,11.8157625198364,"Via Veneto, 30",Civitavecchia,Pubblici
Comune,42.2551345825195,12.5975399017334,"Via Oreste Leonardi, 5",Filacciano,Pubblici
"Jolly Lido",41.5050392150879,12.5792779922485,"lungomare celeste 3",Anzio,Privati
"Istituto ""Giorgio Ambrosoli""",41.8820915222168,12.5609741210938,"Viale della Primavera, 207",Roma,Pubblici
"Istituto ""De Chirico""",41.8575706481934,12.5725841522217,"Via Contardo Ferrini, 61",Roma,Pubblici
"Istituto ""Jean Piaget""",41.8607330322266,12.5654973983765,"Viale M. F. Nobiliore, 79A",Roma,Pubblici
"Istituto ""J. Von Neumann""",41.9452972412109,12.5783138275146,"Via Pollenza, 115",Roma,Pubblici
"Istituto ""Tito Lucrezio Caro""",41.932056427002,12.4771041870117,"Via Venezuela, 30",Roma,Pubblici
"Istituto ""Renato Cartesio""",41.933162689209,12.4140396118164,"Via Cesare Lombroso, 120",Roma,Pubblici
"Istituto ""Sisto V"",""Via Sarandì 11""",41.9475364685059,12.5422039031982,"Via della cecchina, 20",Roma,Pubblici
"Istituto ""Via di Ripetta""",41.9069709777832,12.4757604598999,"VIA RIPETTA 218",Roma,Pubblici
"Istituto ""Francesco D'assisi"" (succursale)",41.8918190002441,12.5729646682739,"Via Castore Durante 11",Roma,Pubblici
"Biblioteca Comunale Pasolini",41.8019218444824,12.6003370285034,"via 4 novembre 90",Ciampino,Pubblici
"Istituto ""Pacinotti""",41.9492721557617,12.5151700973511,"Via Montaione, 15",Roma,Pubblici
"Palazzo Borghese",41.8164024353027,12.7159481048584,"piazza borgese","Monte Porzio Catone",Pubblici
Comune,42.087474822998,11.7981300354004,"Piazza Pietro Guglielmotti, 7",Civitavecchia,Pubblici
"Paglia Caffè",41.8427658081055,12.6115884780884,"Largo A. Berardi,22",Roma,Privati
"Istituto ""Biagio Pascal""",41.9949684143066,12.4872846603394,"Via Brembio, 97",Roma,Pubblici
"Bar tavola calda Tortora",41.920280456543,12.4941549301147,"Via Guido D'Arezzo, 35",Roma,Privati
"Centro Per l'Impiego",41.8676071166992,12.6257610321045,"via iacopo torriti 7",Roma,Pubblici
Comune,42.2043190002441,12.3998222351074,"Piazza Giovanni XXIII, 8","Mazzano Romano",Pubblici
Comune,41.9763031005859,12.8680534362793,"Corso cavour 34","Castel Madama",Pubblici
Comune,41.9758186340332,12.8680477142334,"Corso cavour 17","Castel Madama",Pubblici
"Istituto ""Giuseppe Armellini""",41.8560485839844,12.4764003753662,"Largo Beato Placido Riccardi, 13",Roma,Pubblici
"Istituto ""Federico Cesi""",41.9480438232422,12.5298271179199,"Via Sarandì, 11",Roma,Pubblici
"Centro Anziani Villanova",41.9632992,12.7518788,"Via Cavour, 42","Guidonia Montecelio",Pubblici
Comune,42.1598587036133,12.4365701675415,"piazza risorgimento 1","Magliano Romano",Pubblici
"Complesso Ospedaliero San Giovanni",41.8863143920898,12.5020666122437,"via dell'amba aradam ",Roma,Pubblici
"Centro Convegni",42.1105565,12.8336512,"Via della Pineta,1",Monteflavio,Pubblici
"ITC “Via 2 Giugno di Fonte Nuova”",41.9984169006348,12.6176652908325,"Via Due Giugno, Snc","Fonte Nuova",Pubblici
"Istituto ""Pertini""",41.7019844055176,12.684868812561,"Via Napoli 3","Genzano di Roma",Pubblici
"C.S.A Decima Torrino",41.8202209472656,12.4424209594727,"via Roberto Lordi 7",Roma,Pubblici
"Centro Tutela Familiare",41.8968162536621,12.5166263580322,"Via dei Sardi, 60",Roma,Pubblici
"Biblioteca di storia moderna e contemporanea ",41.8944511413574,12.4784603118896,"via Caetani 32",Roma,Pubblici
"VIGAMUS - Museo del Videogames",41.9169120788574,12.4592924118042,"Via Sabotino, 4",Roma,Pubblici
"Centro Anziani Sandro Pertini",41.8786697387695,12.5654458999634,"Via degli Aceri 57",Roma,Pubblici
"Via Maremmana Inferiore",41.9664878845215,12.7552003860474,"Via Maremmana Inferiore",Tivoli,Pubblici
"Centro Anziani Frassini",41.8835334777832,12.5681400299072,"via dei frassini 97",Roma,Pubblici
"Comune ",41.8826751708984,12.982741355896,"Piazza Augusto Baccelli","San Vito Romano",Pubblici
"Piazza Cesare Battisti",42.0232296,12.8067232999999,"Piazza Cesare Battisti","Marcellina ",Pubblici
"Istituto ""Giovanni XXIII""",41.8965377807617,12.5916795730591,"Via Tor Sapienza, 160",Roma,Pubblici
"Istituto ""Mattei""",42.020809173584,12.1440916061401,"Via Paolo Borsellino snc",Cerveteri,Pubblici
"Istituto ""Majorana""",41.7886085510254,12.4437923431396,"Via Carlo Avolio, 111",Roma,Pubblici
"Biblioteca di Storia Moderna e Contemporanea",41.8940734863281,12.478120803833,"via Michelangelo Caetani 32",Roma,Pubblici
"Biblioteca di Storia Moderna e Contemporanea",41.8940505981445,12.4784717559814,"via Michelangelo Caetani 32",Roma,Pubblici
"Biblioteca di Storia Moderna e Contemporanea",41.8941421508789,12.4782123565674,"via Michelangelo Caetani 32",Roma,Pubblici
"Istituto "" Quarenghi""  (ex Volta)",41.9246520996094,13.0938491821289,"Via di Villa Scarpellini",Subiaco,Pubblici
"Istituto Majorana - Succursale",41.7837867736816,12.4402074813843,"Via Salvatore Lorizzo, 71",Roma,Pubblici
"Istituto ""Quarenghi""",41.9247779846191,13.0936622619629,"Via di Villa Scarpellini",Subiaco,Pubblici
"c.s.a. Pietro Marinelli (frazione Quadroni)",42.1328887939453,12.1209049224854,"via latina 45",Manziana,Pubblici
"Istituto ""Copernico"" ",41.666015625,12.4997806549072,"Via Copernico, 3 ",Pomezia,Pubblici
"Istituto ""Montessori""(succursale)",41.9314079284668,12.5151844024658,"Via Casperia, 21",Roma,Pubblici
"Istituto ""Stendhal""",41.9178733825684,12.415135383606,"Via Federico Borromeo, 67",Roma,Pubblici
Comune,41.9204406738281,12.8747291564941,"Largo Sturzo, 6","San Gregorio da Sassola",Pubblici
Municipio,41.9976615905762,12.620509147644,"Piazza Padre Pio","Fonte Nuova",Pubblici
"Istituto ""Pilo Albertelli""",41.8985557556152,12.4989004135132,"Via Daniele Manin, 72",Roma,Pubblici
"Scuola Maroncelli",41.7732734680176,12.6666450500488,"ViaPietro Maroncelli. 1",Marino,Pubblici
"Scuola Ippolito Nievo",41.7798919677734,12.6075859069824,"Via Antonio Fantinoli, 1",Marino,Pubblici
"Scuola di Formazione e Aggiornamento Personale Amministrazione Penitenziaria ""Giovanni Falcone"" ",41.8701210021973,12.3817148208618,"Via di Brava 99",Roma,Pubblici
"Scuola di Formazione e Aggiornamento Personale Amministrazione Penitenziaria ""Giovanni Falcone"" ",41.876556575629,12.3795275411045,"Via di Brava 99",Roma,Pubblici
"Scuola di Formazione e Aggiornamento Personale Amministrazione Penitenziaria ""Giovanni Falcone"" ",41.8765594,12.3795262,"Via di Brava 99",Roma,Pubblici
"Istituto ""Pascal""",41.6594696044922,12.4989719390869,"Via Pietro Nenni, 48 ",Pomezia,Pubblici
"Istituto ""Peano""",42.0651245117188,12.6256647109985,"Via della Fonte, 9",Monterotondo,Pubblici
"Centro Anziani",41.9258728027344,13.0914907455444,"Piazza Ulderico Pelliccia 1",Subiaco,Pubblici
Comune,41.8197995326131,12.8006148934364,"Piazzale dell'autonomia, 1","San Cesareo",Pubblici
"Istituto "" Augusto""",41.8782625,12.5197888,"Via Gela, 14",Roma,Pubblici
"Istituto Newton",41.8965034484863,12.4977264404297,"Via dell'Olmata 4",Roma,Pubblici
"Istituto ""Quarenghi"" (ex Braschi)",41.9246139526367,13.0937061309814,"Via di Villa Scarpellini",Subiaco,Pubblici
"Centro per l'impiego",41.9550933837891,12.8058185577393,"Via Empolitania 236",Tivoli,Pubblici
"Convento di San Michele a Montecelio",42.019157409668,12.7433032989502,"Via XXV Aprile","Guidonia Montecelio",Pubblici
"Scuola Diaz",42.1438179016113,12.5065965652466,"Piazza Armando Diaz 24",Morlupo,Pubblici
Municipio,42.0125999450684,12.8378944396973,"Via Due Giugno n. 1","San Polo dei Cavalieri",Pubblici
Comune,42.0503807067871,12.8976850509644,"via aldo moro",Roccagiovine,Pubblici
"Tribunale di Velletri",41.7000503540039,12.6860513687134,"Piazza Giovanni Falcone",Velletri,Pubblici
Comune,41.4586296081543,12.6680145263672,"Via Giacomo Matteotti, 37",Nettuno,Pubblici
Comune,42.1561965942383,11.9016990661621,"Piazza della Repubblica, 39",Allumiere,Pubblici
"Comune di Montelanico - Stazione dei Pompieri",41.6488148307356,13.038658180951,"Viale Roma",Montelanico,
"Biblioteca ",41.8597098941458,13.0333204999999,"Via Roma, 38","Olevano Romano",Pubblici
"Centro per l'Impiego Colleferro ",41.7438613,13.0019981,"Via Casilina km 52,200",Colleferro,Pubblici
"Scuola elementare ""Landi""",41.7088813781738,12.6865835189819,"via Fausto Gullo, 2","Genzano di Roma",Pubblici
"Anagrafe ",42.0924987792969,11.7956809997559,"Piazzale Santarelli",Civitavecchia,Pubblici
"Comune - Sala Pucci ",42.0873489379883,11.7980651855469,"p.za P. Guglielmotti 7",Civitavecchia,Pubblici
"Palazzo del museo",42.2578735351562,12.5706157684326,"Via XX settembre","Ponzano Romano",Pubblici
,42.1621017456055,12.7865962982178,"Corso Umberto I",Nerola,Pubblici
"Ristorante ""Bel Poggio""",41.9907188415527,12.5211496353149,"Via Del Monte di Casa, 36",Roma,Privati
"Centro Sportivo Ippolife",42.0420875549316,12.6385307312012,"Via dei Cannetacci, 50",Mentana,Pubblici
"Pizzeria Le Tre P",41.8817672729492,12.5211982727051,"via Gaspare Ambrosini 47",Roma,Privati
"S.D. Sporting Club Tuscolano",41.8625869750977,12.5711708068848,"Via Filomusi Guelfi, 38",Roma,Pubblici
"Centro Regionale S. Alessio",41.8565292358398,12.5007257461548,"Viale C. Tommaso Odescalchi, 38",Roma,Pubblici
Comune,41.9109001159668,13.0242967605591,"Via Padre Pellegrino Ernetti, 9","Rocca Santo Stefano",Pubblici
Comune,41.9337272644043,12.9940872192383,"Piazza degli Eroi",Gerano,Pubblici
"Chiesa di Santa Apollaria",41.8481903076172,12.8053178787231,"via di Santa Apollaria",Zagarolo,Pubblici
Biblioteca,41.6926498413086,13.0223350524902,"Via dellaPretura, 1",Segni,Pubblici
Comune,41.7282600402832,12.6588954925537,"Piazza Fagiolo","Albano Laziale",Pubblici
Municipio,42.1032028198242,12.175838470459,"Piazza IV Novembre",Bracciano,Pubblici
"Asilo nido Piccoli artisti",42.0175628662109,12.341215133667,"Via Alberto Tallone",Roma,Pubblici
Municipio,42.1367607116699,12.1036167144775,"Piazza del Campo","Canale Monterano",Pubblici
Comune,41.7282257080078,12.6589593887329,"Piazza Fagiolo","Albano Laziale",Pubblici
"Ale&Frank Caffè",41.9318531,12.5226395,"Piazza Addis Abeba, 21",Roma,Privati
"Ufficio Servizi Sociali",41.7864532972287,12.8857787490738,"Piazza Mazzini, 8",Labico,Pubblici
"Tucano Beach",41.5499596,12.5381949,"Lungomare dei greci, 23",Ardea,Privati
Comune,41.7475166320801,12.6503295898438,"Piazza della Liberta', 7","Castel Gandolfo",Pubblici
"Circolo Sottufficiali",41.8656768798828,12.5539131164551,"Via di Centocelle, 301",Roma,Pubblici
"Istituto “Michele Amari”",41.7927093505859,12.6184043884277,"Via Romana, 11 ",Ciampino,Pubblici
"Istituto ""Touschek""",41.794677734375,12.6643524169922,"Viale Kennedy snc",Grottaferrata,Pubblici
Cretone,42.0742247522497,12.7048200775544,"Via Alessandro Manzoni","Palombara Sabina",Pubblici
Municipio,42.1350746154785,12.738865852356,"Piazza Della Repubblica",Montelibretti,Pubblici
"Biblioteca Comunale di Sant'Oreste",42.2359411020768,12.5179326589302,"Piazza Cavalieri Caccia, 12",Sant'Oreste,Pubblici
"Istituto ""Pomezia""",41.4546089172363,12.6271772384644,"Via del Teatro Romano, 1 ","Anzio ",Pubblici
Dacrì,41.8007736206055,12.44753074646,"Via Elio Chianesi, 96",Roma,Privati
"Scuola Primaria Vulpiani",42.0151701191563,12.8924880001892,"Largo Cesare Battisti",Vicovaro,Pubblici
"Istituto ""Seneca""",41.9052734375,12.4266376495361,"Via Francesco Albergotti, 35",Roma,Pubblici
"Istituto ""Colonna Gatti""  sede centrale",41.449592590332,12.619683265686,"Via Filibeck, 2",Anzio,Pubblici
"Istituto ""d'Arte di Roma""",41.8590240478516,12.5679731369019,"Piazza dei decemveri, 12",Roma,Pubblici
"Istituto ""Charles Darwin""",41.8741989135742,12.5294904708862,"Via Tuscolana, 388",Roma,Pubblici
"Istituto ""Jean Piaget""",41.898738861084,12.5873994827271,"Via Giorgio de Chirico, 59",Roma,Pubblici
"Istituto ""G. B. Morgagni""",41.8779182434082,12.4538898468018,"Via Fonteiana,125",Roma,Pubblici
"Istituto ""Via di Villa Pamphili 86""",41.8777084350586,12.4557590484619,"Via di Villa Pamphili, 86",Roma,Pubblici
" Istituto ""Federico Caffe'""",41.879207611084,12.4543399810791,"Via Fonteiana, 111",Roma,Pubblici
"Istituto ""Pilo Albertelli"" ",41.8987045288086,12.4988613128662,"Via Daniele Manin, 72",Roma,Pubblici
"Istituto “Giorgio Ambrosoli""",41.8739242553711,12.6010856628418,"Via delle Alzavole, 25",Roma,Pubblici
"Istituto ""Cicerone""",41.818187713623,12.7152509689331,"Via Consalvi snc","Monte Porzio Catone",Pubblici
"Istituto ""Livia Bottardi""",41.908374786377,12.606297492981,"Via Filiberto Petiti, 97",Roma,Pubblici
"Istituto ""Bertrand Russell”",41.8858375549316,12.5121240615845,"Via la spezia, 21",Roma,Pubblici
"Istituto ""Duca D'aosta""",41.884076579874,12.5179836750031,"Via Taranto, 59",Roma,Pubblici
"Istituto ""Via Sommovigo""",41.9114952087402,12.5756855010986,"Via Amedeo Sommovigo, 40",Roma,Pubblici
"Istituto ""Da Norcia""",41.8903503417969,12.5588912963867,"Via Saracinesco, 18",Roma,Pubblici
"Istituto ""Europa-Virginia Woolf""",41.8883590698242,12.5277605056763,"Circonvallazione Casilina, 119",Roma,Pubblici
"Istituto ""Vittorio Lattanzio""",41.8895149230957,12.5480794906616,"Via teano, 223",Roma,Pubblici
"Istituto ""Europa-Virginia Woolf""",41.8878707885742,12.5601902008057,"Via Romolo Trinchieri, 49",Roma,Pubblici
"Istituto ""Da Norcia""",41.8901252746582,12.5572710037231,"Via Anagni, 24",Roma,Pubblici
"Istituto ""Gullace Talotta""",41.8604354858398,12.5680198669434,"Via Arrigo Solmi, 27",Roma,Pubblici
"Istituto ""Hertz""",41.8489456176758,12.5840091705322,"Via Walter Procaccini, 70",Roma,Pubblici
"Istituto ""Lucio Lombardo Radice""",41.8469130231617,12.5864521166718,"Piazza Ettore Viola, 6",Roma,Pubblici
"Istituto ""Lucio Lombardo Radice""",41.8295249938965,12.6175556182861,"Via San Basile ",Roma,Pubblici
"Istituto ""Artusi""",41.8664855957031,12.5518426895142,"Via Sestio Menas, 67",Roma,Pubblici
"Istituto ""Via Luisa di Savoia""",41.9196739196777,12.4639854431152,"Via Caposile, 1",Roma,Pubblici
"Istituto ""Artusi""",41.8256187438965,12.5619878768921,"Via Pizzo di Calabria, 5",Roma,Pubblici
"Il forno 92 srl",41.8385378639036,12.6013942392868,"Via del Ponte delle Sette Miglia, 51",Roma,Privati
"Istituto ""Artusi""",41.8425712585449,12.5439987182617,"Via Montescaglioso ",Roma,Pubblici
"Wellness Club",41.9376472172023,12.5545862698364,"Via Rousseau, 124",Roma,Privati
"Istituto ""Tacito""",41.9347305297852,12.4136371612549,"Via Sebastiano Vinci , 1",Roma,Pubblici
"Ristopronto srl",41.7834434509277,12.3326044082642,"Via di Dragone, 401b",Roma,Privati
"Istituto Alberghiero ""Domizia Lucilla"" (sede via Vinci 1)",41.9341354370117,12.4136047363281,"Via Sebastiano Vinci,1",Roma,Pubblici
"Istituto ""Ruiz""",41.8254051208496,12.4722185134888,"Viale Africa, 109",Roma,Pubblici
"Istituto ""Einstain""",41.9359436035156,12.5497245788574,"Via Pasquale II, 237",Roma,Pubblici
"Istituto ""D'Este""",41.9936981201172,12.7238845825195,"Piazza Alfredo Barbieri snc","Guidonia Montecelio",Pubblici
"Istituto ""Torricelli""",41.9167327880859,12.4149951934814,"Via Federico Borromeo, 67",Roma,Pubblici
"Istituto ""Via Zambeccari,1""",41.9996910095215,12.7254409790039,"Via Zambeccari, 1","Guidonia Montecelio",Pubblici
"Istituto "" Gassman""",41.9201469421387,12.4099550247192,"Via Torrevecchia, 683",Roma,Pubblici
"Istituto ""Majorana""",41.9844703674316,12.7146787643433,"Via Roma, 298","Guidonia Montecelio",Pubblici
"Istituto ""De Amicis""",41.9122047424316,12.4085903167725,"Via Cardinal di Capranica, 78",Roma,Pubblici
"Istituto ""E. Fermi""",41.9350128173828,12.4387226104736,"Via Trionfale 8737",Roma,Pubblici
"Caserma Carabinieri ""Salvo D' Acquisto"" -",41.9464968420709,12.481035888195,"Viale Tor Di Quinto, 119",Roma,Pubblici
Comune,42.0820045471191,12.4036989212036,"Piazza San Lorenzo, 8",Formello,Pubblici
"Circolo Canottieri Lazio",41.923755645752,12.4660234451294,"Lungotevere Flaminio, 25",Roma,Pubblici
"Kristal Bar",41.9610214233398,12.0832538604736,"Via Saturno 2",Ladispoli,Privati
"Tre Cannelle",41.8965628818886,12.4836937772461,"Via IV Novembre, 119",Roma,Pubblici
"Piazza Palmiro Togliatti",42.1326179504395,12.6560716629028,"Piazza Palmiro Togliatti",Montelibretti,Pubblici
"Istituto ""Pirelli""",41.879222869873,12.5254230499268,"Via Assisi, 44",Roma,Pubblici
"Istituto ""E.Fermi""",41.8195190429688,12.6732978820801,"Via Enrico Fermi, 14","Frascati ",Pubblici
"Municipio di Palombara Sabina",42.0670127868652,12.7656555175781,"Piazza Vittorio Veneto, 12","Palombara Sabina",Pubblici
"Istituto ""Mercuri""",41.7700881958008,12.6585369110107,"Corso Vittorio Colonna, 53",Marino,Pubblici
"Istituto ""Via della Stella"" (ex Garrone) ",41.728588104248,12.6588096618652,"Via della Stella  7","Albano Laziale",Pubblici
"Istituto ""A.Volta""",41.9572219848633,12.8088846206665,"Via Sant'Agnese, 46",Tivoli,Pubblici
"Istituto ""Sant'Agnese,44""",41.9572410583496,12.808819770813,"Via Sant' Agnese, 44",Tivoli,Pubblici
"Istituto ""Ugo Foscolo"" (succursale)",41.7272644042969,12.6556720733643,"Via Rossini, 1","Albano Laziale",Pubblici
"Museo archeologico Roger Lambrechts-Ex Granaio",41.742330038332,12.9120318075485,"Via Alessandro Fleming, 77",Artena,Pubblici
"Istituto ""Cesare Battisti""",41.7002105712891,12.6926326751709,"Via Ferruccio Parri, 14",Velletri,Pubblici
"Istituto ""Michelangelo Bonarroti"" (Succursale)",41.809642791748,12.6874094009399,"Via E. Consalvi, 3","Monte Porzio Catone ",Pubblici
"Istituto ""Vailati"" (succursale)",41.7042465209961,12.6912860870361,"Via Sebastiano Silvestri, 157","Genzano di Roma",Pubblici
"Istituto ""Landi""",41.6722145080566,12.7753057479858,"Via Salvo D'acquisto, 61",Velletri,Pubblici
"Istituto ""Yvonn de Begnac""",41.9559516906738,12.0715560913086,"Via Yvonn de Begnac, 6",Ladispoli,Pubblici
"Comando di Polizia Municipale",41.9871978759766,12.7166805267334,"Viale Roma 145","Guidonia Montecelio",Pubblici
"Istituto ""Galileo Galilei""",42.0411720275879,11.8680639266968,"Via Galileo Galilei","Santa Marinella",Pubblici
"Istituto ""Cannizzaro""",41.8363418579102,12.4670715332031,"Via della Civiltà del Lavoro, 2D",Roma,Pubblici
"Istituto ""Giovanni Giorgi""",41.9007453918457,12.5739498138428,"Viale Palmiro Togliatti, 1161",Roma,Pubblici
"Istituto ""Francesco D'Assisi""",41.8821601867676,12.5611734390259,"Viale della Primavera, 207",Roma,Pubblici
"Istituto ""Lazzaro Spallanzani""",41.9544143676758,12.8061485290527,"Via Rivellese",Tivoli,Pubblici
"Istituto ""Via Tiburto,44""",41.9557647705078,12.7998304367065,"Via Tiburto, 44",Tivoli,Pubblici
"Istituto ""Via delle Scienze""",41.7222213745117,13.0150003433228,"Via delle Scienze e della Tecnica",Colleferro,Pubblici
"Istituto ""Enrico Fermi""",41.9598159790039,12.8022260665894,"Via Acquaregna, 112",Tivoli,Pubblici
"Istituto ""Colle dei Frati Borsellino-Falcone""",41.8387298583984,12.8135347366333,"Via Colle dei Frati",Zagarolo,Pubblici
"Istituto ""Renato Cartesio""",41.858455657959,13.0308256149292,"Via Martino Annunziata, 21","Olevano Romano",Pubblici
Municipio,41.8880195617676,13.1683073043823,"Via IV Novembre, 10",Jenne,Pubblici
"Palazzo Colonna",41.897502646748,12.4839782743438,"Piazza Santi Apostoli, 66",Roma,Pubblici
"Palazzo Valentini",41.8964424133301,12.4837884902954,"Via Quattro Novembre 119",Roma,Pubblici
"Piazza Comune",41.7886827763513,12.667076587677,"Via Giuseppe Garibaldi, 34",Grottaferrata,Pubblici
Comune,41.8459357863019,12.9454991362458,"Piazza San Nicola, 9","Rocca Di Cave",Pubblici
"Biblioteca Comunale",42.1918869018555,12.4724540710449,"Via del Fossetto, 1","Rignano Flaminio",Pubblici
Comune,41.8822016970595,13.0287487506866,"Piazza del Municipio, 9",Bellegra,Pubblici
"Palazzo Valentini ",41.8964238144521,12.483789938623,"Via IV Novembre",Roma,Pubblici
"Circolo sportivo All round",41.8100388,12.4446838,"Viale Don Pasquino Borghi, 96",Roma,Privati
"Istituto ""Cesare Battisti""",41.6877250671387,12.7759571075439,"Via dei Lauri, 1",Velletri,Pubblici
"CNR - Area della Ricerca RM1",42.1031532287598,12.6363897323608,"Strada Provinciale 35d",Montelibretti,Pubblici
"Palazzo Valentini",41.8964540169095,12.4842118546658,"via quattro novembre, 119",Roma,Pubblici
"Ospedale Addolorata",41.8854264371064,12.4985505423278,"Via di Santo Stefano Rotondo, 5",Roma,Pubblici
"Istituto ""Bruno Giordano""",41.9571647644043,12.5454244613647,"Via della Bufalotta, 594",Roma,Pubblici
"Comune ",42.0595893859863,12.9978218078613,"Via Costanza Garibaldi,6",Riofreddo,Pubblici
"Istituto ""Amerigo Vespucci""",41.9079399108887,12.5472249984741,"Via Facchinetti, 43",Roma,Pubblici
"Pavona - Parco Giochi",41.7244758605957,12.6158800125122,"via Roma 1","Albano Laziale",Pubblici
"Locanda Atlantide",41.8945579528809,12.5158348083496,"via dei lucani 22",Roma,Privati
"Piazzale Museo Civico",41.7269859313965,12.6616907119751,"Piazza Sabatini","Albano Laziale",Pubblici
"Istituto ""A.Vespucci""(succursale)",41.9110260009766,12.549991607666,"Via Tiburtina, 689",Roma,Pubblici
"Piazza Garibaldi",42.0345077514648,12.6374816894531,"piazza Garibaldi",Mentana,Pubblici
"Istituto ""Faraday""",41.7414703369141,12.2881174087524,"Via Capo Sperone, 52",Roma,Pubblici
"Istituto ""Faraday""",41.7413864135742,12.2883682250977,"Via Capo Sperone, 52",Roma,Pubblici
"Istituto ""Faraday""",41.7414245605469,12.2881813049316,"Via Capo Sperone, 52",Roma,Pubblici
"Istituto ""Aristofane""",41.9518200575206,12.531153678894,"Via Monte Resegone, 3",Roma,Pubblici
"Istituto ""Confalonieri""",41.881591796875,12.5120458602905,"Via Cerveteri, 53",Roma,Pubblici
"Centro Anziani",41.7846810117443,12.6722309589386,"Viale primo maggio,136",Grottaferrata,Pubblici
"Sede Polizia Locale",41.6870231628418,12.7786245346069,"Corso della Repubblica, 239",Velletri,Pubblici
"Biblioteca Comunale ",41.7265968322754,12.6618566513062,"Viale Risorgimento, 5","Albano Laziale",Pubblici
"Casa Internazionale delle donne - Biblioteca	Via della Lungara, 19",41.8944854736328,12.4660482406616,"Via della Lungara, 19",Roma,Pubblici
"Ospedale S. Giovanni - Piazzale blocco C",41.8846244812012,12.5013103485107,"Via Dell'amba Aradam.",Roma,Pubblici
"Ospedale S. Giovanni - Sala Prelievi",41.8889465332031,12.4980154037476,"Via San Giovanni In Laterano",Roma,Pubblici
"Circolo MAE",41.9338073730469,12.4805002212524,"Lungotevere dell'acqua acetosa 42",Roma,Pubblici
"Circolo MAE",41.9324872,12.4820460999999,"Lungotevere dell'Acqua Acetosa, 42",Roma,Pubblici
"Circolo MAE	",41.9339752197266,12.4804639816284,"Lungotevere dell'acqua acetosa 42",Roma,Pubblici
"Circolo Asd Tennis e Sport Ostia Antica",41.7614440917969,12.3027086257935,"Via Pericle Ducati 1",Roma,Pubblici
"Circolo MAE",41.9339790344238,12.4803533554077,"Lungotevere dell'acqua acetosa 42",Roma,Pubblici
"Circolo ippico Casale S. Nicola",42.0072174072266,12.3618402481079,"Via Del Casale Di San Nicola 232",Roma,Pubblici
"Istituto ""Confalonieri""",41.8792152404785,12.5022611618042,"Via Beata de Mattias, 5",Roma,Pubblici
"Bar caffè dell' orologio",41.7878570556641,12.66832447052,"Corso del popolo, 60",Grottaferrata,Privati
Municipio,42.1499786376953,11.9383459091187,"Piazza Vittorio Veneto, 12",Tolfa,Pubblici
"Istituto Cine TV Rossellini",41.8553886413574,12.4685764312744,"Via della Vasca Navale 58",Roma,Pubblici
"Ass. Punto a capo",41.7694205,12.6607452000001,"Corso Trieste, 45",Marino,Privati
" Biblioteca Comunale ""Giovanni Cena""",41.7958758877302,12.8059794490738,"P.zza Giovanni Cena, 1","Rocca Priora",Pubblici
"Istituto ""Francesco De Pinedo""",41.8291435241699,12.4972553253174,"Via Francesco Morandini, 30",Roma,Pubblici
"Istituto ""Primo Levi""",41.8292999267578,12.4973812103271,"Via Francesco Morandini, 64",Roma,Pubblici
"Istituto ""Giuseppe Garibaldi""",41.8293838500977,12.5180692672729,"Via Ardeatina, 524",Roma,Pubblici
"Istituto ""Marcantonio Colonna""",41.8525161743164,12.4707288742065,"Via Salvatore Pincherle, 201","Roma ",Pubblici
"Istituto ""Ex De Chirico - Via Beata Maria De Mattias""",41.8793411254883,12.502345085144,"Largo Pannonia, 37",Roma,Pubblici
Comune,41.729736328125,13.0048542022705,"Piazza Italia,1 ",Colleferro,Pubblici
"Istituto ""Eugenio Montale""",41.8686027526855,12.4228019714355,"Via di Bravetta, 545",Roma,Pubblici
"Bar il Tucano",42.0908813476562,12.5222654342651,"Via Dante Alighieri 44",Riano,Privati
"Istituto ""Cannizzaro""(succursale)",41.8238372802734,12.4473934173584,"Viale dell'Oceano Indiano",Roma,Pubblici
"Istituto ""Aristotele""",41.8226318359375,12.4825029373169,"Via dei Sommozzatori, 50",Roma,Pubblici
"Istituto ""D'arte Roma1""(succursale)",41.824870832665,12.4947816133499,"Via Andrea Argoli, 50",Roma,Pubblici
"Istituto ""Leon Battista Alberti""",41.8361053466797,12.4666776657104,"Viale Civiltà del Lavoro, 4",Roma,Pubblici
"Istituto ""James Joyce""",41.7237295544789,12.685628565815,"Via Alcide De Gasperi,20",Ariccia,Pubblici
"Piazza San Pietro",41.7287101745605,12.6583805084229,"Piazza San Pietro","Albano Laziale",Pubblici
"Istituto ""Orazio""",41.9412117004395,12.5443248748779,"Via Savinio Alberto, 40",Roma,Pubblici
"Istituto ""Orazio""(succursale)",41.9387664794922,12.5394535064697,"Via Isolabella, 5",Roma,Pubblici
"Scuola Comunale",42.0122644062171,12.8406803572083,"Via I Maggio, 2","San Polo dei Cavalieri",Pubblici
"Hotel All Time",41.8092422485352,12.4466505050659,"Via Domenico Jachino 181",Roma,Privati
"Agriturismo Corte in fiore",41.5575460565598,12.5677543730163,"Via Degli Olivi 16",Ardea,Privati
"Circolo Empire",41.8803100585938,12.4012660980225,"Via Degli Aldobrandeschi 115",Roma,Pubblici
"Centro Sociale Anziani Corcolle",41.9013366699219,12.736120223999,"via frontone, 239","Roma ",Pubblici
"Municipio ",41.9268080621548,13.2309377288361,"Piazza Italia, 1",Vallepietra,Pubblici
"Istituto ""J. Von Neumann""(succursale)",41.921199798584,12.5379686355591,"Via del Tufo, 27",Roma,Pubblici
"Istituto ""James Joyce"" (succursale)",41.7082023620605,12.6641035079956,"Via di Vallericcia, 51",Ariccia,Pubblici
Municipio,41.9445284048789,12.9815389337296,"Piazza Giuseppe Garibaldi, 11","Cerreto Laziale",Pubblici
" 	Ospedale S. Giovanni - CUP",41.889030456543,12.4981069564819,"Via San Giovanni In Laterano",Roma,Pubblici
"Bar La Licata",41.8946189880371,12.490909576416,"Via Dei Serpenti, 165",Roma,Privati
"Cecchina - Villa del Vescovo ",41.6975975036621,12.6508932113647,"Viale Italia, 1","Albano Laziale",Pubblici
" 	Associazione Per fare Insieme onlus",41.9376220703125,12.531439781189,"VIa Pelagosa, 3",Roma,Pubblici
"Punto Informazioni Turistiche",42.0594496687503,13.0008134576722,"Piazza Giuseppe Garibaldi",Percile,Pubblici
"Centro Commerciale Arca di Capena",42.1168098449707,12.5905122756958,"VIa Tiberina 73a",Capena,Privati
"Istituto ""Ugo Foscolo""",41.7322387695312,12.6654624938965,"Via San Francesco d'Assisi, 34","Albano Laziale",Pubblici
"Porta Futuro - sala conferenze",41.8773231506348,12.4744291305542,"via Luigi Galvani 108",Roma,Pubblici
"Istituto ""Angelo Frammartino""",42.0562934875488,12.6179809570312,"Piazza Santa Maria delle Grazie, 10",Monterotondo,Pubblici
"Istituto ""Piazza della Resistenza""(G. Cardano)",42.0517616271973,12.620397567749,"Piazza della Resistenza, 1",Monterotondo,Pubblici
"Istituto ""Via Asmara 28""",41.9274063110352,12.5177087783813,"Via Asmara, 28",Roma,Pubblici
"Istituto ""Piazza della Resistenza""(succursale via Tirso)",42.0528939,12.6209504999999,"Via Fratelli Bandiera, 23",Monterotondo,Pubblici
"Ospedale S. Giovanni - CUP",41.8888473510742,12.4985256195068,"Via San Giovanni In Laterano",Roma,Pubblici
Zoomarine,41.6339492797852,12.4570169448853,"Via Zara",Pomezia,Privati
Zoomarine,41.6332664489746,12.4592599868774,"Via Zara",Pomezia,Privati
"Underground Pub",42.0499954223633,12.6219367980957,"via Reno 5",Monterotondo,Privati
"Piazza San Biagio",42.1035842895508,12.4496545791626,"piazza San Biagio",Sacrofano,Pubblici
"Istituto ""Caravaggio""(succursale)",41.8246383666992,12.4485950469971,"Via dell'Oceano Indiano, 64",Roma,Pubblici
"Istituto ""Gaio Valerio Catullo"" (succursale)",42.0524749755859,12.6212778091431,"Via Fratelli Bandiera, 23",Monterotondo,Pubblici
"Istituto ""Gaio Valerio Catullo"" (Centrale)",42.0575543603547,12.6344854387619,"Via Tirso, 19",Monterotondo,Pubblici
"Istituto ""Luigi Calamatta""(succursale)",42.0953826904297,11.7982511520386,"Via Namaziano, 5",Civitavecchia,Pubblici
"Istituto ""Enzo Ferrari""",41.8576354980469,12.572546005249,"Via Contardo Ferrini, 83",Roma,Pubblici
"Caffè Aphrodite",41.9186134338379,12.4956655502319,"via Gaetano Donizetti 26",Roma,Privati
"Istituto ""Vincenzo Gioberti""",41.8880996704102,12.4757843017578,"Via dei Genovesi, 30c",Roma,Pubblici
"Istituto ""Angelo Frammartino"" (succursale)",42.056640625,12.6162328720093,"Via Adda, 9b",Monterotondo,Pubblici
"Istituto ""Via Asmara 28""(succursale)",41.9145393371582,12.5066728591919,"Via Novara, 20",Roma,Pubblici
"Istituto ""Orazio Olivieri""",41.9640083312988,12.8032932281494,"Viale Giuseppe Mazzini, 89",Tivoli,Pubblici
"Istituto ""Talete""",41.9124603271484,12.4591541290283,"Via Gabriele Camozzi, 4",Roma,Pubblici
"Parco Castelli Romani",41.7633310886836,12.7048898779099,"Via Cesare Battisti, 5","Rocca di Papa",Pubblici
"Palazzo Valentini",41.896614074707,12.4839344024658,"Via Quattro Novembre 119",Roma,Pubblici
"Palazzo Valentini",41.8968452,12.4852837999999,"Via Quattro Novembre",Roma,Pubblici
"Palazzo Valentini",41.8963470458984,12.4839487075806,"Via Quattro Novembre 119",Roma,Pubblici
"Sporting Palace",41.9121589660645,12.5009765625,"via mantova 1",Roma,Privati
"Istituto ""Isacco Newton""",41.8906021118164,12.5072469711304,"Viale Manzoni, 47",Roma,Pubblici
"Istituto ""Galileo Galilei""",41.8930358886719,12.5069570541382,"Via Conte Verde, 51",Roma,Pubblici
"Istituto ""D'Arte""",41.6699485778809,12.4996290206909,"Via Cavour, 5",Pomezia,Pubblici
"Istituto ""Guido Baccelli""",42.0950469970703,11.7980699539185,"Via Leopoli, 16",Civitavecchia,Pubblici
"Istituto ""Via Adige""",42.1022911071777,11.7973375320435,"Via della Polveriera",Civitavecchia,Pubblici
"CIttà metropolitana di Roma Capitale",41.9117270998781,12.5497350777082,"Via Tiburtina, 691",Roma,Pubblici
"Istituto ""Archimede""",41.9492568969727,12.5143156051636,"Via Vaglia, 10",Roma,Pubblici
"Istituto ""Augusto Righi""",41.9106636047363,12.4953508377075,"Via Campania, 63",Roma,Pubblici
"Istituto ""Augusto Righi""(succursale)",41.9086151123047,12.4945096969604,"Via Boncompagni, 22",Roma,Pubblici
"Istituto ""Armando Diaz"" ",41.8176383972168,12.4664039611816,"Via Vitaliano Brancati, 19",Roma,Pubblici
"Istituto ""Tasso""",41.9099688374072,12.4960401306885,"Via Sicilia, 168",Roma,Pubblici
"Istituto ""Francesco Vivona"" (succursale)",41.8178291320801,12.4660816192627,"Via Vitaliano Brancati, 20",Roma,Pubblici
"Istituto ""Parodi Delfino""",41.7574005126953,13.005087852478,"Via Palianese",Colleferro,Pubblici
"Istituto ""G.Caetani""",41.9167900085449,12.4650983810425,"Viale Mazzini, 36",Roma,Pubblici
"Istituto ""Via Salvini""",41.930477142334,12.491358757019,"Via Tommaso Salvini, 24",Roma,Pubblici
"Istituto ""A. Avogadro""",41.9179992675781,12.5032434463501,"Via Brenta, 26",Roma,Pubblici
"Istituto comprensivo ""Maria Capozzi""",41.9058750928245,12.4166910841309,"Via Ennio Bonifazi, 64",Roma,Pubblici
"Istituto ""Toscanelli""",41.7245826721191,12.2955121994019,"Via Rande, 22",Roma,Pubblici
"Istituto ""Carlo Urbani""",41.7385482788086,12.2596292495728,"Via Dell'idroscalo, 88",Roma,Pubblici
"Istituto ""Federigo Enriques"" (succursale)",41.7365455627441,12.2911500930786,"Via Angelo Olivieri, 141",Roma,Pubblici
"Istituto ""Federigo Enriques""",41.7371864318848,12.2905874252319,"Via Paolini, 196",Roma,Pubblici
"Istituto ""Via Asmara,28""(succursale)",41.9163208007812,12.5084056854248,"Piazza di Villa Paganini",Roma,Pubblici
"Istituto ""Avogadro""(succursale)",41.9291076660156,12.520544052124,"Via Cirenaica, 7",Roma,Pubblici
"Istituto ""Matteucci""(succursale)",41.9491996765137,12.5659217834473,"Via Roberto Rossellini, 7",Roma,Pubblici
"Istituto ""Nomentano""(succursale)",41.9497489929199,12.5631980895996,"Via di Casal Boccone, 60",Roma,Pubblici
"Istituto ""Matteucci""",41.9519271850586,12.5364360809326,"Via delle Vigne Nuove, 262",Roma,Pubblici
"Istituto ""Orazio""(succursale)",41.9366149902344,12.5457763671875,"Via Spegazzini, 50",Roma,Pubblici
"Istituto ""Colombo""(succursale)",41.9559288024902,12.5357656478882,"Via delle Vigne Nuove, 413",Roma,Pubblici
"Istituto ""Machiavelli""(succursale)",41.9135665893555,12.5252952575684,"Via Giovanni da Procida, 14",Roma,Pubblici
"Bar Piersanti ",41.7776641845703,12.3550691604614,"Piazza Segantini",Roma,Privati
"Istituto ""Verne""(succursale)",41.8177528381348,12.4364519119263,"Piazzale EzioTarantelli, 18",Roma,Pubblici
"Istituto ""Emilio Sereni""(succursale)",41.8824462890625,12.9818153381348,"Via Guido Baccelli, 35","San Vito Romano",Pubblici
"Istituto ""Confalonieri - Beata Maria De Mattias, 5""(succursale)",41.8538398742676,12.4863653182983,"Via Alessandro Severo, 212",Roma,Pubblici
"Istituto ""Isabella D' Este"" Succursale",41.9607734680176,12.8017349243164,"Viale Mazzini, snc ","Tivoli ",Pubblici
"Istituto ""Enzo Ferrari""",41.8642807006836,12.5369710922241,"Via Grottaferrata, 76",Roma,Pubblici
"Istituto ""Via dei Papareschi""",41.8701934814453,12.4694557189941,"Via dei Papareschi, 30a",Roma,Pubblici
"Istituto ""Via delle Sette Chiese""(succursale)",41.8537483215332,12.4706449508667,"Via Nistri,11",Roma,Pubblici
"Lavanderia Lavapiù",42.070673,12.598737,"Via Salaria,201",Monterotondo,Privati
"Istituto Tecnico Commerciale Piero Calamandrei",41.9785041809082,12.4941387176514,"Via Carlo Emery, 97",Roma,Privati
"Circolo sottufficiali Marina Militare ",41.944584998574,12.4823919047546,"Viale Tor di quinto, 111",Roma,Pubblici
"Biblioteca Comunale",41.4499643689978,12.6302949024467,"Via di Villa Adele",Anzio,Pubblici
"Centro Agroalimentare Roma",41.9410438537598,12.6578226089478,"Via tenuta del cavaliere 1",Roma,Pubblici
"Istituto ""Machiavelli""",41.9042549133301,12.5035438537598,"Piazza Indipendenza, 7",Roma,Pubblici
"Istituto ""Seneca""(succursale)",41.9006500244141,12.4158067703247,"Via Fulvio Maroi",Roma,Pubblici
"Istituto ""Volta Ceccherelli""",41.8728981018066,12.422703742981,"Via di Bravetta, 541",Roma,Pubblici
"Istituto ""Malpighi""",41.8773765563965,12.4318561553955,"Via Silvestri, 301",Roma,Pubblici
"Istituto ""Volta-Ceccherelli""",41.8768768310547,12.4261026382446,"Via di Bravetta, 383",Roma,Pubblici
"Istituto ""Leonardo da Vinci"" Sede Succursale",41.8943862915039,12.1835145950317,"Viale Maria, 561",Fiumicino,Pubblici
"Istituto ""Paolo Baffi"" Sede succursale",41.8535537719727,12.218560218811,"Viale di Porto, 205",Fiumicino,Pubblici
"Istituto ""Giulio Verne""",41.7763137817383,12.3509893417358,"Via di Saponara, 150",Roma,Pubblici
"Istituto ""Immanuel Kant""",41.8762321472168,12.5497417449951,"Piazza Zambeccari, 19",Roma,Pubblici
"Policlinico - CED",41.8872534,12.5153546,"Viale Castrense",Roma,Pubblici
"Polizia Municipale",41.6698160250571,12.5016268968201,"Piazza Indipendenza, 8",Pomezia,Pubblici
"Centro Anziani Cesano",42.0712897,12.3371499,"Via Orrea,25",Roma,Pubblici
"Istituto ""Luigi Einaudi""(succursale)",41.8996086120605,12.4153480529785,"Via Giorgio Del Vecchio, 242",Roma,Pubblici
"Istituto ""Seneca""(succursale)",41.9045181274414,12.4342527389526,"Via Ettore Stampini, 38",Roma,Pubblici
"Istituto ""Via dell'Immacolata 47""",42.1035652160645,11.7932081222534,"Via Immacolata, 47",Civitavecchia,Pubblici
"Istituto ""Cattaneo""",41.8796691894531,12.4716520309448,"Lungo Tevere Testaccio, 32","Roma ",Pubblici
"Uffici Comunali",41.667854309082,12.4982643127441,"Piazza San Benedetto Da Norcia",Pomezia,Pubblici
"Istituto "" Sandro Pertini""",41.9561386108398,12.0739755630493,"Via Caltagirone, 1",Ladispoli,Pubblici
"Istituto ""Gioberti""(succursale)",41.8894271850586,12.4684543609619,"Via Della Paglia, 50",Roma,Pubblici
"Caserma Salvo d' Acquisto - Piazzetta centrale",41.9465298937516,12.4814786911011,"Viale Tor di Quinto, 119",Roma,Pubblici
"Accademia Nazionale di Danza",41.883861541748,12.4831895828247,"Largo Arrigo VII, 5",Roma,Pubblici
"Istituto ""Via di Capo Sperone 150"" (Succursale Istituto Verne)",41.7864646911621,12.3533315658569,"Via Andrea da Garessio, 109",Roma,Pubblici
"Istituto ""Jean Piaget""(succursale)",41.8673286437988,12.5482950210571,"Via Diana,  35",Roma,Pubblici
"Istituto ""Plauto""",41.7803115844727,12.4438915252686,"Via Augusto Renzini, 70",Roma,Pubblici
"Istituto ""G. De Sanctis"" (Succursale)",41.9404220581055,12.4653749465942,"Via Giacomo Malvano, 20",Roma,Pubblici
"istituto ""Argoli""(succursale Istituto Alberghiero Tor Carbone)",41.8250999450684,12.4953289031982,"Via Argoli, 50",Roma,Pubblici
"Punto informazioni turistiche ",41.9988784790039,12.100757598877,"Piazza Aldo Moro, 2",Cerveteri,Pubblici
Municipio,42.0801086425781,12.4007549285889,"Piazza San Lorenzo, 21",Formello,Pubblici
"Accademia Filarmonica Romana - Sala Casella",41.9169120788574,12.4742574691772,"via flaminia 118",Roma,Pubblici
"Dojo Zen",41.7351150512695,12.6471014022827,"Via delle mole 32","Albano Laziale",Privati
"Istituto ""Via dei Papareschi"" (succursale)",41.8373870849609,12.4218664169312,"Via delle Vigne, 205",Roma,Pubblici
"Coppedè Cafè",41.9199714660645,12.5029411315918,"Via Tagliamento 28",Roma,Privati
"Ponton dell'Elce",42.0225677490234,12.2348175048828,"Largo dei Larici","Anguillara Sabazia",Pubblici
Zoomarine,41.634334564209,12.4557180404663,"Via Zara",Pomezia,Privati
"Istituto ""Urbani""",41.7708625793457,12.3361196517944,"Via di Saponara, 760",Roma,Pubblici
"Istituto ""Keplero""(succursale)",41.8372535705566,12.4219732284546,"Via delle Vigne, 156",Roma,Pubblici
"Centro Anziani Martin Pescatore",41.6640357971191,12.4878635406494,"via signa, 9",Pomezia,Pubblici
"Istituto ""Anco Marzio""(succursale)",41.741153717041,12.2881107330322,"Via Capo Sperone, 50",Roma,Pubblici
"Istituto ""Colonna Gatti"" (sede succursale)",41.4565315246582,12.6502561569214,"Via Orsenigo, 1",Nettuno,Pubblici
"Istituto ""Toscanelli""(succursale)",41.7413139343262,12.2880077362061,"Via Capo Sperone, 52",Roma,Pubblici
"Istituto ""De Sanctis"" (succursale)",41.9413414001465,12.4739036560059,"Via Antonio Serra, 91",Roma,Pubblici
"Istituto ""Farnesina"" (succursale)",41.9356155395508,12.4634037017822,"Via dei Robilant, 7",Roma,Pubblici
"Istituto ""Stanislao Cannizzaro""",41.7243957519531,13.014988899231,"Via Consolare Latina, 263",Colleferro,Pubblici
"Istituto ""Isabella D'Este""(succursale)",41.9606895446777,12.8016510009766,"Via Colsereno, 107",Tivoli,Pubblici
"Biblioteca Comunale",41.8093715379847,12.7382922518677,"Via Annibaldeschi",MonteCompatri,Pubblici
"Birrifugio - Ostia Lido",41.7310028076172,12.2927494049072,"Via F. Acton, 18",Roma,Privati
"Biblioteca Multimediale Chris Cappell",41.4618644714355,12.6259984970093,"Via Antium,7",Anzio,Pubblici
"Piazza Lavinia",41.4990043640137,12.5861101150513,"Piazza Lavinia 19",Anzio,Pubblici
"Bar Centrale",42.1005210876465,12.5040788650513,"via rianese, 142",Riano,Privati
"Istituto Enzo Rossi - Scuola D'arte Roma 2",41.9142608642578,12.5607585906982,"Via del frantoio 2",Roma,Pubblici
"Palazzetto dello Sport",41.4605819,12.6476110999999,"Via Santa Barbara",Nettuno,
"Scuola del Sociale",41.9574775695801,12.4554347991943,"Via Cassia, 472",Roma,Pubblici
"Centro Formazione ",41.9575042724609,12.4554929733276,"Via Cassia, 472",Roma,Pubblici
"Istituto ""Aristofane"" (Succursale)",41.948844909668,12.5314931869507,"Via delle Isole Curzolane, 73",Roma,Pubblici
"Circolo Empire - Reception",41.8804740905762,12.4011764526367,"Via Degli Aldobrandeschi 115",Roma,Pubblici
Municipio,41.6497268676758,13.039529800415,"Piazza Vittorio Emanuele II",Montelanico,Pubblici
"Circolo Empire - Sala Ristorazione",41.8803329467773,12.401141166687,"Via Degli Aldobrandeschi 115",Roma,Pubblici
"Scuola di Formazione e Aggiornamento Personale Amministrazione Penitenziaria ""Giovanni Falcone"" ",41.8825988769531,12.382664680481,"Via di Brava 99",Roma,Pubblici
"Scuola di Formazione e Aggiornamento Personale Amministrazione Penitenziaria ""Giovanni Falcone"" ",41.8827285766602,12.3826284408569,"Via di Brava 99",Roma,Pubblici
"I.S. Leopoldo Pirelli",41.8689422607422,12.534478187561,"Via Rocca di Papa, 113",Roma,Pubblici
"Scuola di Formazione e Aggiornamento Personale Amministrazione Penitenziaria ""Giovanni Falcone"" ",41.8827438354492,12.382791519165,"Via di Brava 99",Roma,Pubblici
"Circolo MAE",41.9345207214355,12.4794721603394,"Lungotevere dell'acqua acetosa, 42","Roma ",Pubblici
"Bar La Terrazza",41.8865280151367,12.9743680953979,"Via Giovanni XXIII, 62","San Vito Romano",Privati
"Centro Anziani",41.807975769043,12.6812963485718,"Via Giacomo Matteotti, 59",Frascati,Pubblici
"Scuola di Formazione e Aggiornamento Personale Amministrazione Penitenziaria ""Giovanni Falcone"" ",41.8825187683105,12.3826055526733,"Via di Brava 99",Roma,Pubblici
"Parrocchia Santa Lucia",41.9774901446251,12.6501170158691,"Via Lombardia, 13","Fonte Nuova",Pubblici
"Comune - Sala Consiliare",41.6864128112793,12.7772283554077,"Piazza Cesare Augusto, 1","Velletri ",Pubblici
"S.S Lazio Baseball",41.8549690246582,12.4843101501465,"via della villa di lucina 12",Roma,Privati
Comune,41.9883346557617,13.0682611465454,"Piazza Umberto I","Cervara di Roma",Pubblici
"Policlinico Umberto I - Padiglione 3",41.9074821472168,12.5112714767456,"Viale del policlinico, 155",Roma,Pubblici
"Policlinico Umberto I - Dermatologia",41.9049377441406,12.5116262435913,"Viale del policlinico, 155",Roma,Pubblici
"Policlinico Umberto I - II° Chirurgia",41.9073867797852,12.510139465332,"Viale del policlinico, 155",Roma,Pubblici
"Policlinico Umberto I - Giardini Padiglione 4",41.9066314697266,12.5115766525269,"Viale del policlinico, 155",Roma,Pubblici
"Policlinico Umberto I - Padiglione 6/7",41.905704498291,12.5121374130249,"Viale del policlinico, 155",Roma,Pubblici
"Policlinico Umberto I - Dea",41.9067535400391,12.5103187561035,"Viale del policlinico, 155",Roma,Pubblici
"Policlinico Umberto I - Centro Trasfusionale",41.9062232971191,12.5140924453735,"Viale del policlinico, 155",Roma,Pubblici
"Policlinico Umberto I - Giardini Archivio Clinico",41.906364440918,12.5106592178345,"Viale del policlinico, 155",Roma,Pubblici
"Policlinico Umberto I - Clinica Ostetrica",41.9081840515137,12.5116472244263,"Viale del policlinico, 155",Roma,Pubblici
Municipio,42.2099189758301,12.4810123443604,"Piazza IV Novembre 1","Rignano Flaminio",Pubblici
"Policlinico Umberto I - Scienze Chirurgiche",41.9067802429199,12.5127811431885,"Viale del policlinico, 155",Roma,Pubblici
"Policlinico Umberto I - Fungo",41.9068756103516,12.5127325057983,"Viale del policlinico, 155",Roma,Pubblici
"Circolo Canottieri Aniene ",41.9318428039551,12.4842052459717,"Lungotevere dell'acqua acetosa, 119",Roma,Pubblici
"Clinica Mancini",41.8505286,13.1734547999999,"Via Giorgio Icilio Mancini, 12","Arcinazzo Romano",Privati
"Centro per l'Impiego ",41.8379325866699,12.8908109664917,"Via degli Arcioni 15",Palestrina,Pubblici
"Centro Formazione Professionale Adriatico",41.9427299499512,12.5377025604248,"Via Monti Lessini 6",Roma,Pubblici
"Centro per l'impiego",41.675651550293,12.500509262085,"Via Pontina Vecchia 13",Pomezia,Pubblici
"Centro per l'Impiego",41.4495315551758,12.6196422576904,"Via Lussemburgo snc",Anzio,Pubblici
"Centro per l'impiego",41.9344787597656,12.5863056182861,"Via Scorticabove 77",Roma,Pubblici
"Centro per l'impiego",41.9344062805176,12.5864963531494,"Via Scorticabove 77",Roma,Pubblici
"Centro per l'Impiego",41.6870422363281,12.778697013855,"Corso della Repubblica 241",Velletri,Pubblici
"Istituto Alberghiero Y. De Begnac",41.9601417610524,12.0708261200989,"Via Federici",Ladispoli,Pubblici
"Palazzo Valentini",41.8963383135941,12.4840394722137,"Via IV Novembre",Roma,Pubblici
Municipio,42.0341709804977,12.7130345742397,"Piazza Santa Liberata","Sant'Angelo Romano",Pubblici
"Fondazione Santa Lucia - Ufficio Network",41.8410039783045,12.5153583386231,"Via Ardeatina, 306",Roma,Pubblici
"Centro Anziani Parco Schuster",41.8622665405273,12.477855682373,"Via Ostiense, 182",Roma,Pubblici
"Biblioteca Casanatense",41.8988241016321,12.4793764424962,"Via di Sant Ignazio, 52",Roma,Pubblici
"Bar La Baita",41.9238548278809,12.4468793869019,"Piazzale delle Medaglie d'Oro 29",Roma,Pubblici
"Policlinico Umberto I - 1° Clinica Medica",41.905101776123,12.510817527771,"Viale del policlinico, 155",Roma,Pubblici
"Associazione Sportiva Alma Nuoto",41.863410949707,12.5550670623779,"viale dei consoli, 24",Roma,Privati
"Istituto PIER LUIGI NERVI",41.6848754882812,13.0236377716064,"via Scroccarocco, 20",Segni,Pubblici
"Parco regionale Appia Antica",41.8683127747897,12.502489855156,"Via Appia Antica, 42",Roma,Pubblici
"Istituto ""Caravaggio""",41.8562850952148,12.5005855560303,"Via Odescalchi,75",Roma,Pubblici
"Istituto ""Michelangelo Buonarroti""",41.8103256225586,12.684814453125,"Via Angelo Celli, 1",Frascati,Pubblici
"Istituto ""Pier Luigi Nervi""",42.208610534668,12.4724645614624,"Via Falisca","Rignano Flaminio",Pubblici
"Istituto ""Via Campagnanese,3""",42.1489295959473,12.5030784606934,"Via Campagnanese, 3",Morlupo,Pubblici
"Biblioteca Comunale",41.7407042096454,12.9121830362458,"Via Fleming",Artena,Pubblici
"Centro Sociale",41.933666229248,12.9933471679688,"Piazza dell'Annunziata, 2",Gerano,Pubblici
"Bar ""Caffetteria 2040""",42.0343060702179,12.3776353093315,"Via Cassia, 2040",Roma,Privati
"Caffè Fleming",41.9465026855469,12.4735107421875,"Via Flaminia 677",Roma,Privati
"Biblioteca Comunale",42.0337448120117,12.6379957199097,"Via Crescenzio, 1",Mentana,Pubblici
"Istituto ""Enriques""(succursale)",41.7863998413086,12.3534555435181,"Via Andrea da Garessio, 109",Roma,Pubblici
"Ufficio Anagrafe",41.7070541381836,12.6901407241821,"Via Italo Belardi, 81","Genzano di Roma",Pubblici
"Istituto superiore per la conservazione ed il restauro",41.8838996887207,12.4747018814087,"Via di San Michele, 23",Roma,Pubblici
"Centro di Accoglienza Casa Benvenuto",41.880298614502,12.5737209320068,"Via del fosso di centocelle, 66",Roma,Privati
"Punto Informazioni Turistiche",42.155948638916,12.2458057403564,"Piazza Vittorio Emanuele III","Trevignano Romano",Pubblici
"Comando Polizia Municipale",42.0417785644531,13.0166578292847,"Via Cesare Battisti, 6",Arsoli,Pubblici
"Biblioteca Comunale",42.0260810852051,12.9946851730347,"Piazza Repubblica, 4",Roviano,Pubblici
"Centro Sportivo Time Out",42.073860168457,12.3734798431396,"Via Cassia, km 24,300",Formello,Privati
"Studio dentistico",41.6492042541504,12.6567611694336,"Via Nettunense, 32",Lanuvio,Privati
"Biblioteca Comunale",41.7959221762838,12.66934633255,"Viale Giovanni Dusmet, 20",Grottaferrata,Pubblici
"Scuola Primaria",41.9337219,12.9934362,"Piazza della Repubblica",Gerano,Pubblici
"Centro per l'impiego",42.0922470092773,11.8066663742065,"Via Lepanto, 13",Civitavecchia,Pubblici
"Centro Anziani Granai di Nerva",41.8354263305664,12.5026941299438,"Via Tazio Nuvolari, 250",Roma,Pubblici
Municipio,42.0414390563965,13.0163660049438,"Piazza Martiri Antifascisti, 1",Arsoli,Pubblici
Municipio,42.0860977172852,12.9954500198364,"Via San Rocco,22",Vallinfreda,Pubblici
"Scuola Materna Comunale",41.6767044067383,12.7007255554199,"Piazza Carlo Fontana",Lanuvio,Pubblici
"Punto Informazioni Turistiche",41.7189598083496,12.7155723571777,"Piazza Roma",Nemi,Pubblici
"Centro Sociale Anziani",42.16845703125,12.585711479187,"Via penna calda","Fiano Romano",Pubblici
"Bar Il Veliero",41.8442649841309,12.5487213134766,"Via Annia Regilla, 133",Roma,Privati
"Ristorante Settembrini Vino&Cucina",41.9151153564453,12.4659109115601,"Via Luigi Settembrini, 25",Roma,Privati
Comune,41.9871597290039,12.9383163452148,"Via Alberto Theodoli, 1",Sambuci,Pubblici
"Bar Giolitti",41.8726997375488,12.5293197631836,"Largo orazi e curiazi, 23",Roma,Privati
Municipio,41.9997291564941,12.7256851196289,"Piazza Matteotti","Guidonia Montecelio",
Municipio,42.2368202209473,12.6153764724731,"Largo 16 Marzo 1978, 9","Torrita Tiberina",
"Punto Informazioni Turistiche",42.0630222,12.770767,"Via Rieti,1","Palombara Sabina",
"Villa dei Quintili ",41.8295135498047,12.5562257766724,"Via Appia, 290",Roma,
"Teatro Comunale",42.2359133,12.5177154,"Piazza Dei Cavalieri Caccia, 7",Sant'Oreste,
"C.S.I. Roma Flaminio",41.9240417480469,12.4638557434082,"Lungotevere Flaminio, 59",Roma,Privati
"Circolo Sportivo Belle Arti",41.9181785583496,12.4740171432495,"Via Flaminia, 158",Roma,Privati
"Forno Dei Desideri",41.9157371520996,12.4667768478394,"Via Avezzana, 35",Roma,Privati
"Centrovini Arcioni",41.9110412597656,12.4546184539795,"Via della Giuliana, 11",Roma,Privati
"Gay Center",41.877857208252,12.4754915237427,"Via Nicola Zabaglia, 14",Roma,Privati
"Istituto superiore per la conservazione ed il restauro",41.8841857910156,12.4750823974609,"Via di San Michele, 23",Roma,Pubblici
"Istituto superiore per la conservazione ed il restauro",41.8839721679688,12.4746627807617,"Via di San Michele, 23",Roma,Pubblici
"Istituto superiore per la conservazione ed il restauro",41.8845596313477,12.4750537872314,"Via di San Michele, 23",Roma,Pubblici
"Circolo Sportivo Aquaniene",41.932487487793,12.4923992156982,"Viale della Moschea",Roma,Pubblici
"Marinari Caffè",41.9294891357422,12.5168046951294,"Viale Libia 10",Roma,Privati
"Fondazione Santa Lucia -Sala Congressi",41.84130859375,12.514741897583,"via Ardeatina 306",Roma,Pubblici
"Fondazione Santa Lucia - Centro Congressi",41.8411254882812,12.5140552520752,"Via Ardeatina 306",Roma,Pubblici
"Fondazione Santa Lucia - Scuole Universitarie",41.8417701721191,12.5155458450317,"Via Ardeatina 306","Roma ",Pubblici
"Ditta F.lli Colaiacomo",41.6534324177386,13.0398598105896,"Viale Roma",Montelanico,
"Biblioteca di Villa Pamphili",41.8791742877692,12.4562441079346,"Via di Villa Pamphili, 71 ",Roma,
"Complesso sportivo comunale Isola Verde",41.6547773,13.0422273,"Viale dello Sport",Montelanico,
"Riserva Naturale di Nomentum",42.0191042775864,12.6393783963867,"Riserva naturale di nomentum",Roma,
"Palazzo Valentini",41.8961127737671,12.4843160497376,"Via Quattro Novembre, 119 ",Roma,Pubblici
"Fondazione Santa Lucia - Sala aspetto Poliambulatorio",41.8405876159668,12.5162115097046,"Via Ardeatina 306 ",Roma,Pubblici
"Fondazione Santa Lucia - Sala aspetto Poliambulatorio",41.8421058654785,12.5147953033447,"Via Ardeatina 306 ",Roma,Pubblici
"Fondazione Santa Lucia - Sala aspetto Diagnostica per Immagini",41.8412590026855,12.5151386260986,"Via Ardeatina 306 ",Roma,Pubblici
"Villa Altieri",41.8910746577221,12.5073586225761,"Viale Manzoni, 47",Roma,
"Città Metropolitana di Roma Capitale",41.8173269875678,12.4565991846557,"Viale Giorgio Ribotta 41",Roma,Pubblici
"Villa Altieri",41.8909378051758,12.5071306228638,"Viale Manzoni 47 ",Roma,
"Villa Altieri",41.8910064697266,12.5069217681885,"Viale Manzoni 47 ",Roma,
"Villa Altieri",41.8911459633368,12.5080876496681,"Viale Manzoni, 47 ",Roma,
"Biblioteca Comunale",41.834846496582,12.9740314483643,"Piazza San Nicola, 1",Genazzano,Pubblici
Municipio,41.8332939147949,12.9727840423584,"Piazza Santa Maria, 4",Genazzano,Pubblici
"Casa Famiglia",41.6207542419434,12.4634895324707,"Piazza Ungheria",Pomezia,Privati
Municipio,41.994514465332,13.0162353515625,"Piazza del Municipio, 1","Marano Equo",Pubblici
"Istituto ""Margherita di Savoia""",41.8811184402224,12.5108090403367,"Via cerveteri, 55",Roma,Pubblici
"Protezione Civile",41.9446182250977,12.9834365844727,"Via XXIV Maggio, 2","Cerreto Laziale",Pubblici
"Comando Polizia Municipale",41.788406939703,12.6680433750153,"Via Giuseppe Garibaldi, 20",Grottaferrata,Pubblici
"Istituto Rossellini",41.8565559387207,12.4689931869507,"Via della Vasca Navale, 58",Roma,Pubblici
Comune,42.1003150939941,13.0068235397339,"Via Mastro Lavinio, 5","Vivaro Romano",Pubblici
"Mercato Rionale Casilino23",41.8818092346191,12.5566091537476,"Via Ferraironi",Roma,
Belvedere,41.8339309692383,12.7518720626831,"Via Roma",Colonna,Pubblici
"Mercato Rionale Casilino23",41.8822937011719,12.5565843582153,"Via Ferraironi",Roma,
Carabinieri,41.8342056274414,12.7517337799072,"Via dei monti, 2",Colonna,Pubblici
"Wellness Town",41.8528467734128,12.5009071276127,"Via Francesco Giangiacomo, 55 ",Roma,Privati
"IFO Istituti Fisioterapici Ospitalieri",41.8028259277344,12.4510278701782,"Via Elio Chianesi 53",Roma,Pubblici
"Istituto ""Vito Volterra"" ",41.7898788452148,12.6223773956299," Via dell'acqua Acetosa, 8A",Ciampino,Pubblici
"Centro Anziani",41.8329658508301,12.7543849945068,"Piazzale Francesco Colagrossi",Colonna,Pubblici
"IFO Istituti Fisioterapici Ospitalieri",41.8022270202637,12.4502553939819,"Via Elio Chianesi 53",Roma,Pubblici
"IFO Istituti Fisioterapici Ospitalieri",41.8024253845215,12.4507703781128,"Via Elio Chianesi 53",Roma,Pubblici
"IFO Istituti Fisioterapici Ospitalieri",41.8022918701172,12.45139503479,"Via Elio Chianesi 53",Roma,Pubblici
"Club Nautico l'Approdo",41.4846725463867,12.5931234359741,"Via dei lillà",Anzio,Privati
"Sede Municipio Roma 11",41.854190826416,12.4951057434082,"via dei Lincei 93",Roma,Pubblici
"Laziodisu Roma 3",41.7944677676119,12.455583691597,"Via Valleranello, 99",Roma,
"Laziodisu Roma Tre",41.794579018628,12.4660679417725,"Via Valleranello, 99",Roma,
"Sede Municipio",41.7928466796875,12.4042139053345," Via Gemmano Vitinia",Roma,
"Mercato Laurentino",41.8105392456055,12.484001159668,"via Francesco Sapori",Roma,
"Uffici Comune Lungomare Lutazio Catulo 3, 5- ",41.7164555,12.3122859,"Lungomare Lutezio Catulo, 5",Roma,Pubblici
"Scuola Paolo Stefanelli",41.9358749389648,12.4260549545288,"via Enrico Pestalozzi, 5",Roma,
"Scuola Paolo Stefanelli",41.9358100891113,12.4261913299561,"via Enrico Pestalozzi, 5",Roma,Pubblici
"Scuola Paolo Stefanelli",41.9396284,12.4285549,"Via Giuseppe Taverna, 97",Roma,
"Centro Anziani Parco S.Onofrio",41.9349734,12.4360552000001,"Via Luigi Morandi, 11",Roma,Pubblici
"Traiano Residence",41.8527208487526,13.1726101636887,"Via Monte Altuino, 1","Arcinazzo Romano",Privati
Comune,41.9859390258789,12.9370269775391,"Via Roma, 49",Ciciliano,Pubblici
"Sede centrale Municipio XV",41.848988817771,12.4521046730164,"Via Camillo Montalcini, 1",Roma,
"Sede Centrale Municipio XV",41.8489069,12.4520403,"Via Camillo Montalcini, 1",Roma,
"Consulta Municipale dell'Handicap",41.8465617,12.4601133,"Viale Vicopisano, 95",Roma,
"Scuola Bellingeri",41.9351553,12.4177222000001,"Via Andrea Verga, 2",Roma,
"Museo della Mente, Pad. 6",41.9409790039062,12.4191379547119,"Piazza Santa Maria della Pietà",Roma,
"Terme Domiziane",41.7288513183594,12.662672996521,"Via Legione Partica, 13","Albano Laziale",Privati
"Mercato Comunale Santa Silvia",41.8553619384766,12.4504127502441,"Piazza Lorenzini",Roma,
"Scuola Media Collodi",41.8419095,12.4375979,"via Massa Marittima, 1",Roma,
"Scuola Media Collodi",41.8419109986606,12.4375972294478,"via Massa Marittima, 1",Roma,
"Cooperativa Sociale ""Progetto 96""",41.8529119,12.4255135,"via degli Adimari, 29",Roma,
"Banca del Tempo, INCIS-Pisana",41.8687596,12.4100797,"via Longhena, 98",Roma,
"Sede Municipio XVII",41.9180450439453,12.4581212997437,"Circonvallazione Trionfale, 19",Roma,Pubblici
"Pizzeria Piazza Roma",41.818473815918,12.4888639450073,"Via Marino Ghetaldi, 36",Roma,Privati
"Sede Municipio XVII",41.9120635986328,12.4501419067383,"Circonvallazione Trionfale, 19",Roma,
"Centro Anziani ""Borgo Pio""",41.9038543701172,12.4594564437866,"Borgo Pio, 23",Roma,
Municipio,42.1720771789551,12.5926828384399,"Piazza Giacomo Matteotti","Fiano Romano",Pubblici
"Giardini di Montezebio - Bar Vanni",41.9174919128418,12.4642171859741," via Col di Lana,10",Roma,
"Giardini Montezebio - Bar Vanni",41.9173927307129,12.464243888855,"Via Col di Lana, 10",Roma,
"Centro Anziani ""Pineta Sacchetti""",41.8823863,12.4542456,"via Innocenzo IV, 6",Roma,Pubblici
"Scuola G. Tomassetti",42.0078396,12.3796150000001,"Via Cassia, 1690",Roma,Pubblici
"Scuola G. Tomassetti ",42.0078346174394,12.3796210349703,"Via Cassia, 1690",Roma,Pubblici
"Istituto ""Anco Marzio""",41.7385292053223,12.28795337677,"via capo palinuro 72",Roma,
Comune,41.6559590925797,13.1106803091926,"Piazza Giuseppe Mazzini, 5 ",Gorga,Pubblici
"Tribunale Ordinario Settore Civile Edificio E",41.9122619628906,12.4657430648804," via Lepanto 4",Roma,
"Ingresso Piano Terra",41.905116,12.4867882999999,"piazza Beniamino Gigli, 7",Roma,
Foyer,41.9050140380859,12.4868183135986,"piazza Beniamino Gigli, 7",Roma,
"Sala Gialla",41.9049797058105,12.4867210388184,"piazza Beniamino Gigli, 7",Roma,
"Sala Grigia",41.9051742553711,12.4865350723267,"piazza Beniamino Gigli, 7",Roma,
"Portico Esterno",41.9049873352051,12.4866275787354,"piazza Beniamino Gigli, 7",Roma,
"Scuola Calcio Sabazia Calcio",42.0683708190918,12.2954816818237,"Via Della Mainella 3","Anguillara Sabazia",
"Villa Capo di Bove",41.836181640625,12.5384826660156,"via appia antica, 222",Roma,
"Villa Capo di Bove",41.8305892944336,12.5460586547852,"via appia antica, 222",Roma,
"Tribunale Ordinario Settore Civile Edificio E",41.912169,12.465674017791,"via Lepanto, 4",Roma,
"Bar Ricci",41.9578742980957,12.7978191375732,"Via Tiburto, 42",Tivoli,Privati
"Parco Villa Gregoriana",41.9666720658814,12.8007432490738,"Piazza del Tempio di Vesta",Tivoli,Pubblici
"Tribunale Ordinario settore civile, Edificio E",41.9121932983398,12.4657144546509,"via Lepanto 4",Roma,
"Tribunale Ordinario settore civile, Edificio D",41.9098434448242,12.460654258728,"via Giulio Cesare, 54b",Roma,
"Facoltà di Giurisprudenza",41.867301940918,12.479097366333,"Via Ostiense,159",Roma,
Biblioteca,41.8639144897461,12.4789199829102,"Via Ostiense 139 ",Roma,
"Piazza Telematica",41.8652496337891,12.4791421890259,"Via Ostiense 133",Roma,
"Teatro Palladium",41.8625602722168,12.4854249954224,"Piazza Bartolomeo Romano ",Roma,
"Facoltà di Ingegneria",41.8556785583496,12.4674091339111,"Via della Vasca Navale 81",Roma,
"Facoltà di Ingegneria",41.8544235229492,12.4674520492554,"Via della Vasca Navale 109",Roma,
"Le Torri-Container",41.8542976379395,12.4655809402466,"L.go San Leonardo Murialdo 1",Roma,
"Facoltà di Scienze Politiche",41.8521041870117,12.4788103103638,"Via Chiabrera 199",Roma,
"Facoltà di Scienze Politiche ",41.8509063720703,12.4801769256592,"Via Silvio D'Amico 77 ",Roma,
"Facoltà di Architettura",41.8763122558594,12.4725847244263,"Piazza Orazio Giustiniani ",Roma,
"Biblioteca Francese",41.8931617736816,12.4797782897949,"Piazza Campitelli 3",Roma,
"Facoltà di Architettura",41.8945579528809,12.4904079437256,"Via Madonna dei Monti 40 ",Roma,
"Casa Internazionale delle Donne",41.8939056396484,12.4665107727051,"Via della Lungara, 19",Roma,Pubblici
"Tribunale Ordinario settore civile, Edificio D",41.9118118286133,12.4668636322021,"via Giulio Cesare, 54b",Roma,
"Tribunale Ordinario settore civile, Edificio D",41.9116973876953,12.4669494628906,"via Giulio Cesare 54b",Roma,
"Corte D'Appello - Piano rialzato",41.9175338745117,12.4505834579468,"via Romei",Roma,
"Corte D'Appello - Piano rialzato",41.9175453186035,12.450403213501,"via Romei",Roma,
"Corte D'Appello - Piano rialzato",41.9175643920898,12.4504051208496,"via Romei",Roma,
"Centro per l'impiego Frascati",41.809253692627,12.6792097091675,"Piazzale Aldo Moro",Frascati,Pubblici
Procura,41.9165650051486,12.4521293116568,"via Golametto, 12",Roma,
Procura,41.9165655041189,12.4521293116568,"via Golametto, 12",Roma,
Municipio,41.8700218200684,12.8229827880859,"Piazzale Case Popolari","Gallicano nel Lazio",Pubblici
Municipio,41.8697776794434,12.8229961395264,"Via Tre Novembre, 7","Gallicano nel Lazio",Pubblici
Comune,41.7702751159668,12.6591415405273,"Piazza santa Barnaba",Marino,Pubblici
"Cantina Fabi",41.7707443237305,12.6543569564819,"Piazza Giuseppe Garibaldi, 18",Marino,Privati
"Centro servizi per il Lavoro La Cacciarella",41.9078254699707,12.5460901260376,"via Casal Bruciato, 11",Roma,Pubblici
"Polisportiva Bettini",41.8566131591797,12.5766286849976,"via Quinto Publicio, 39",Roma,
"Parco Uliveto - Pizzeria ""Le Terme""",42.0870752,11.8067115,"Via Rodolfo Morandi",Civitavecchia,Privati
"Parco Uliveto - Pizzeria ""Le Terme""",42.0869159566094,11.8075778535118,"Via Rodolfo Morandi",Civitavecchia,Privati
"Uffici Regione -centro ephebeum-",41.8160591125488,12.7151536941528,"Via Cavour, 6","Monte Porzio Catone",Pubblici
"
Associazione culturale Casale Garibaldi",41.8806925,12.5546355,"via Romolo Balzani, 87",Roma,Pubblici
Castello,41.9204750061035,12.8743762969971,"Piazza Brancaccio","San Gregorio da Sassola",Pubblici
"British School",41.7309641866012,12.2789257595246,"via delle Stazione vecchia, 11",Roma,
"Parco Piazza Cesare De Cupis 20, Tor Sapienza, Scuola primaria ""G. Gesmundo""",41.904208,12.5897772000001,"Piazza Cesare De Cupis, 20",Roma,Pubblici
"Antico Caffè Castellino (p.zza Venezia)",41.8968859,12.4829778000001,"via Cesare Battisti, 135",Roma,
"Parco Atleti azzurri d'Italia 2, presso Scuola Petrassi",41.9441781,12.4599461,"via della Maratona, 35",Roma,
"Giardino Pubblico ex Ferrovie",41.8719536,12.4826455,"Via Pellegrino Matteucci, 51",Roma,Pubblici
"Asilo Nido",41.8975533,12.5164361,"Via dei Sabelli, 88",Roma,
"Scuola Quartararo - Via Portuense, 1491/93",41.8171209,12.3428233,"Via Portuense, 1491",Roma,
"Wellness Club",41.9378051757812,12.5543203353882,"Viale Rousseau 124",Roma,Privati
"Bar Del Parco",41.7895965576172,12.4474382400513,"Via Giovanni Frignani",Roma,Privati
"Scuola popolare di Musica Donna Olimpia",41.8766341,12.4536256,"Via Donna Olimpia, 30",Roma,
"Biblioteca Cornelia",41.908992767334,12.3972120285034,"Via Cornelia, 45",Roma,
"Istituto Comprensivo Borgoncini Duca",41.8946304321289,12.4495220184326,"Via San Silverio",Roma,
"Biblioteca Borghesiana",41.861026763916,12.6707038879395,"Largo Monreale",Roma,
"Scuola Media Gianicolo",41.8788108825684,12.4602651596069,"Largo Oriani",Roma,
"Biblioteca Comunale Rugantino",41.8654897,12.5782432,"Via Rugantino, 113",Roma,
"Scuola Bernardino Mastroianni",41.9171371459961,12.3533897399902,"Via Ponzone, 23",Roma,Pubblici
"Collina della Pace - Asilo nido Collina Verde",41.8641738891602,12.6859159469604,"Via Capaci, 36",Roma,
"Parrocchia di N.S. Czestochowa",41.9138016568972,12.61036825159,"Largo Augusto Corelli, 9",Roma,Pubblici
"Centro Islamico culturale d'Italia",41.935474395752,12.496129989624,"Viale della Moschea, 85",Roma,
"Centro Islamico culturale d'Italia",41.9354133605957,12.4961624145508,"Viale della Moschea, 85",Roma,
"Centro anziani Piana Del Sole",41.8249931335449,12.3042097091675,"Viale di Pescina Gagliarda",Roma,
"Casali Tor Fiscale",41.8625106811523,12.5427389144897,"Via Dell'Acquedotto Felice, 120",Roma,
"Casali Tor Fiscale",41.8625717163086,12.5428524017334,"Via Dell'Acquedotto Felice, 120",Roma,
"Conservatorio Santa Cecilia",41.9074478149414,12.4786024093628,"Via dei Greci, 18",Roma,
"Sala da The Babington",41.9067268371582,12.4819107055664,"Piazza di Spagna, 23",Roma,
"Conservatorio Santa Cecilia",41.9074630737305,12.4785223007202,"Via dei Greci, 18",Roma,
"San Marco Evangelista",41.820915222168,12.4833040237427,"Piazza Dei Giuliani e Dalmati, 20",Roma,Pubblici
"Roma - San Filippo Neri",41.9469985961914,12.4151372909546,"Via Martinotti, 20",Roma,
"Roma - Bar SI.LO",41.9183731079102,12.5545034408569,"Via di Pietralata, 475",Roma,
"Roma - San Filippo Neri",41.9471397399902,12.4150085449219,"Via Martinotti, 20",Roma,
"San Filippo Neri",41.9470100402832,12.4152021408081,"Via Martinotti, 20",Roma,Pubblici
"San Filippo Neri",41.9469184875488,12.4153804779053,"Via Martinotti, 20",Roma,
"Roma - San Filippo Neri",41.9469299316406,12.4152088165283,"Via Martinotti, 20",Roma,
"Roma - San Filippo Neri",41.9468650817871,12.4152565002441,"Via Martinotti, 20",Roma,
"Roma - Palazzo di Giustizia - Biblioteca Centrale Giuridica 2",41.9060039,12.4703603,"Piazza Cavour, 1",Roma,
"Roma - Palazzo di Giustizia - Biblioteca Centrale Giuridica",41.9054565429688,12.468505859375,"Piazza Cavour, 1",Roma,
"Roma - Comitato di Quartiere - Montemigliore",41.724925994873,12.5055179595947,"Via Alessandro Vivenza",Roma,
"Scuola Pistelli - Vaccari",41.9185333251953,12.4651107788086,"Via Monte Zebio, 33",Roma,
"Uffici Municipio IV",41.9520683288574,12.5502557754517,"Via Umberto Fracchia, 45",Roma,
"La fabbrica del caffè",41.9102172851562,12.5704660415649,"Viale Sacco E Vanzetti 167",Roma,Privati
"Centro per l'impiego",42.1017990112305,12.1761417388916,"Via di Valle Foresta, 6",Bracciano,Pubblici
Municipio,41.9570083618164,13.0209798812866,"Via del municipio 31","Rocca Canterano",Pubblici
"Biblioteca Comunale",41.6037330627441,13.0872373580933,"Via Giacomo Matteotti, 58","Carpineto Romano",Pubblici
"Scuola Materna Comunale",41.676830291748,12.7007970809937,"Piazza Carlo Fontana",Lanuvio,Pubblici
"Centro Anziani",41.608601290871,13.0821905136108,"Via Giacomo Matteotti, snc","Carpineto Romano",Pubblici
Comune,41.4574401070665,12.659685858197,"Via Giacomo Matteotti, 37",Nettuno,Pubblici
"Piazza Bainsizza - ASL17",41.919261932373,12.4610586166382,"Via Monte Santo, 71 ",Roma,Pubblici
"Scuola Franco Martelli ",41.9244041442871,12.6696434020996,"via Giuseppe Medail 31",Roma,Pubblici
"Circolo Ippico Acquasanta Vallericcia",41.8484675255612,12.5468281063988,"Via Vallericcia",Roma,Privati
"Porta Futuro",41.8771591186523,12.4739542007446,"Via Galvani, 108",Roma,Pubblici
"Porta Futuro",41.8771209716797,12.4741325378418,"Via Galvani, 108",Roma,Pubblici
"Auditorium della Musica",41.9292460218154,12.4748430252075,"Viale Pietro De Coubertin, 30, ",Roma,Privati
"Porta Futuro - Macro",41.8768196105957,12.4740791320801,"Via Galvani, 108",Roma,Pubblici
"Porta Futuro",41.876895904541,12.4737358093262,"Via Beniamino Frenklin, 8",Roma,Pubblici
"Centro per L'impiego",41.9961059,12.7261555,"Giuliano Montelucci, 9","Guidonia Montecelio",Pubblici
Bocciodromo,41.7722244262695,12.6131296157837,"Via Appia Nuova Vecchia Sede",Marino,Pubblici
"Istituto d'arte ""Roma 2""",41.8206950881888,12.9304191976395,"Via Giulio Venzi, 21",Cave,Pubblici
"Antico Bar Dell'Orso",41.9018728,12.4734399,"Via Dell'Orso,30",Roma,Privati
"Biblioteca Comunale",41.7571877500888,12.7072021275085,"Viale Enrico Ferri, 67","Rocca di Papa",
"Mercato Comunale - Bottega del Vino",41.7309620111574,13.0060313911545,"Via Sobrero",Colleferro,Privati
"Accademia Nazionale di Danza",41.8844546095779,12.4839435160775,"Largo Arrigo VII, 5 ",Roma,Pubblici
"San Filippo Neri",41.9469818052231,12.4154184417162,"Via Martinotti, 20",Roma,Pubblici
"Hotel Giamaica",41.9034497091552,12.5025082490911,"Via Magenta, 13",Roma,Privati
"Istituto ""Pasteur""",41.9421395,12.4110204,"Via G. Barellai, 130",Roma,Pubblici
"Centro Anziani Colle Di Mezzo - Parco",41.8240623829459,12.4915687829422,"Via Alfonso di Legge, 39",Roma,Pubblici
"Policlinico Umberto I - Farmacia Centrale",41.906312065566,12.5133230985641,"Viale del Policlinico, 155",Roma,Pubblici
"Centro Anziani Colle Di Mezzo",41.8238411940942,12.4916324854063,"Via Alfonso di Legge, 39",Roma,Pubblici
"Istituto Cavour",41.8925688,12.4908898,"Via delle Carine, 2",Roma,Pubblici
"Centro Sociale Anziani",42.0826713,12.6078791,"Via Salaria, 5",Mentana,Pubblici
"Istituto ""Giovanni Falcone"" (Succursale Istituto S. Pertini Via Lentini)",41.8650567234398,12.578881369381,"Via Rugantino, 108",Roma,Pubblici
"Palestra Arte e Spettacolo",41.7770041257711,12.4366446239426,"Largo Lido Duranti, 2",Roma,Privati
"Consorzio Turistico Mare di Roma",41.5677658,12.5396922,"Viale Po, 4",Ardea,Privati
"Poliambulatorio - Ospedale Spallanzani",41.865204855403,12.4570113399506,"Via Portuense, 292",Roma,Pubblici
"Spazio Articolo Nove",41.8404374147906,12.8918467196087,"Via Barberini, 24",Palestrina,Pubblici
"Parco Fonte Egeria",41.8549430041776,12.5313137135265,"Via dell'almone 105",Roma,Pubblici
"Studio Tecnico",41.8390122780499,12.892775290738,"Via Thomas Mann, 2",Palestrina,Pubblici
"Istituto ""Via Pedemontana"" (succursale)",41.8217257838501,12.9292324608521,"Via Giulio Venzi, 11",Cave,Pubblici
Municipio,42.0306653,11.8445518,"Lungomare Guglielmo Marconi, 101","Santa Marinella",Pubblici
"Museo Arte Civica e Contemporanea",42.0102762,12.9902314999999,"Piazza Santa Maria, 2","Anticoli Corrado",Pubblici
"Biblioteca di Archeologia e Storia dell'Arte",41.8962277916557,12.4817820410699,"Piazza Venezia, 3",Roma,Pubblici
"Parcheggio Via Silvio Spaventa",41.7629514298942,12.7049743441803,"Via Silvio Spaventa","Rocca di Papa",Pubblici
,41.8987969,12.5129701,"Via dei Luceri",Roma,
"Club Le Rughe",42.0631154,12.3731264,"Viale Africa, 10",Formello,
"Centro Anziani Passo Scuro",41.9032834306303,12.1586326722138,"Via dei Serrenti 95",Fiumicino,
"Centro Anziani Toscanelli",41.7312561,12.2718509,"Lungomare Toscanelli 180",Roma,
"Centro Anziani Rignano Flaminio",42.2074408,12.4839663,"Via Degli Orti 2b","Rignano Flaminio",Privati
"Centro Anziani Vasca Navale",41.8568811,12.4689844,"Via della Vasca Navale, 105",Roma,
"Centro Anziani Testaccio",41.8764125326855,12.4736326464691,"Piazza Orazio Giustiniani 4","Roma ",Pubblici
"Centro Anziani Fabio Di Lorenzo ",41.9109597,12.5259063999999,"Via Boemondo 7a",Roma,Pubblici
"1° Reggimento Scuola Marescialli e Brigadieri dei Carabinieri",41.6771072549079,12.7754214722138,"Viale Salvo d'Acquisto 2","Velletri ",
"Guardia di Finanza",41.6771251858133,12.4536547089843,"Via Pratica di Mare 45","Pomezia ",Pubblici
"Città Metropolitana di Roma Capitale",41.9110120157812,12.5497893300247,"Via Tiburtina 691","Roma ",Pubblici
"Villa Altieri",41.8908983333968,12.5075099526703,"Viale Manzoni 47","Roma ",Pubblici
"Biblioteca comunale",42.1439722634972,12.5068220588607,"Piazza Armando Diaz, 24",Morlupo,
"Istituto comprensivo Giovanni XXIII (Località La Botte)",41.9829353,12.7663085,"Piazza Colle Grato","Guidonia Montecelio",
"Segreteria Studenti",41.8615245691236,12.4792054822784,"Via Ostiense, 175","Roma ",
"Centro Anziani Colleferro",41.7329020323066,13.0088431226845,"Piazza Mazzini, 12",Colleferro,Pubblici
"Centro Anziani",41.790686902362,12.7634373149679,"Via Fontana Maggiore, 53","Rocca Priora ",Pubblici
"Istituto ""Benedetto Croce""",41.9154802790784,12.5711235300594,"via Battista Bardanzellu, 7",Roma,Pubblici
"Centro Socio-culturale ""Narciso 2.0""",41.7882752043831,12.766717181684,"Via Fontana Maggiore, snc","Rocca Priora",Pubblici
"Istituto ""Giuseppe Peano""",41.8292303775415,12.4974894477463,"Via Francesco Morandini, 38",Roma,Pubblici
Municipio,42.003969838934,12.9525972159386,"Piazza Roma, 3",Saracinesco,Pubblici
"Lido del Carabiniere di Focene",41.8196118,12.209524,"Lungomare Gioacchino Rossini, 5",Fiumicino,Privati
"Punto Informazioni Turistiche",41.6915568201601,13.021875108633,"Piazza Cesare Battisti",Segni,Pubblici
"Istituto ""Apicio III"" (sede succursale)",41.4997541861454,12.6048723030758,"Via delle bouganvillae, 7",Anzio,Pubblici
"Biblioteca comunale ",41.8060816,12.6802259999999,"Piazza Marconi, 3",Frascati,Pubblici
"Centro Formazione Professionale Acilia",41.785953847221,12.353934683606,"Via Andrea da Garessio, 109",Roma,Pubblici
"Ufficio relazioni con il pubblico e Centro Linguistico di Ateneo",41.865399722678,12.4799713706391,"Via Ostiense, 131 L","Roma ",
"Dipartimento di Architettura",41.8768769713975,12.4721230898454,"Largo Giovanni Battista Marzi 10","Roma ",
"Dipartimento di Architettura",41.9028320234704,12.4964510404754,"Piazza della Repubblica 10","Roma ",
"Dipartimento di Economia",41.8510983,12.4806236148194,"Via Silvio d'Amico 77","Roma ",
"Dipartimento di Giurisprudenza",41.8624087521747,12.4790616398811,"Via Ostiense, 161",Roma,
"Dipartimento di Ingegneria",41.8543585696373,12.4681038640015,"Via Vito Volterra 62",Roma,
"Dipartimento Matematica e Fisica",41.855887117015,12.4668916042298,"Via della vasca navale 84",Roma,
"Dipartimento Scienze della Formazione",41.9014599635381,12.5049849570083,"Via Castro Pretorio 20","Roma ",
"Dipartimento Scienze della Formazione",41.9002445,12.500612,"Via Daniele Manin 53",Roma,
"Dipartimenti Studi Umanistici",41.8509781689732,12.4754820454773,"Via Ostiense ","Roma ",
"Universita' degli Studi di Roma Tor Vergata - Centro Calcolo e Documentazione",41.8501738572507,12.5978604067459,"Via Orazio Raimondo, 18",Roma,Pubblici
"Rettorato e Amministrazione centrale",41.8495333,12.5978165558197,"Via Orazio Raimondo 18","Roma ",
"Facoltà di Economia",41.8531969227206,12.6245705,"Via Columbia, 2","Roma ",
"Facoltà di Giurisprudenza",41.848891767514,12.5975036406921,"Via Bernardino Alimena, 5","Roma ",
"Facoltà di Ingegneria",41.8553894721688,12.6218859074402,"Via del Politecnico, 1","Roma ",
"Facoltà di Lettere e Filosofia",41.8520073478886,12.6216095375428,"Via Columbia, 1","Roma ",
"Facoltà di Medicina e Chirurgia",41.8567441964555,12.6332113473602,"Via Montpellier, 1","Roma ",
"Facoltà di Scienze Matematiche Fisiche e Naturali",41.8537004320534,12.6042812857056,"Via della Ricerca Scientifica, 1","Roma ",
"Farmacia Igea",41.9339355945393,12.4401164269836,"Largo Cervinia, 23",Roma,Privati
"Biblioteca Comunale",41.6514137937721,13.0402961472387,"Via Corte Vecchia, 27",Montelanico,Pubblici
"Gelateria Ping Pong Ice",41.8950298033926,12.5609596055225,"Via Prenestina, 399",Roma,Privati
"Istituto ""Francesco Vivona""",41.8337413474823,12.4652032503319,"Via della Fisica,14",Roma,Pubblici
"Accademia San Luca",41.9014513131179,12.4837764858792,"Piazza Accademia di San Luca, 77",Roma,Pubblici
"Agriturismo Zugarelli",42.0680054370248,12.2739544814453,"Via comunale di San Francesco, 2590","Anguillara Sabazia",Privati
"Ospedale Santo Spirito",41.9002579796293,12.462517609787,"Lungotevere in Sassia, 1",Roma,
"Parrocchia ""San Giuseppe""",41.784216099595,12.7486417751327," Via Tuscolana Km 28,500","Rocca Priora",Pubblici
"Ospedale Santo Spirito",41.9001591632362,12.462506880951,"Lungotevere in Sassia, 1",Roma,
"Agriturismo Casale Trigoria",41.7541281761913,12.4748465600578,"Via Grotte Penseroni,14",Roma,Privati
"Ospedale Santo Spirito",41.9001309299529,12.4624156858445,"Lungotevere in Sassia, 1",Roma,
"IFO Istituti Fisioterapici Ospitalieri",41.8021111770851,12.4510074121948,"Via Elio Chianesi, 10",Roma,Pubblici
"Biblioteca Comunale",42.2045255926563,12.3996917946457,"Piazza Giovanni XXIII","Mazzano Romano",Pubblici
"Biblioteca Comunale",41.7947088586899,12.7632258558197,"Piazza Umberto I","Rocca Priora",Pubblici
"Comitato ""Insieme per via di Galla Placidia""",41.906913280354,12.5426539858445,"Via di Galla Placidia, 36",Roma,Pubblici
"IFO Istituti Fisioterapici Ospitalieri",41.802589843176,12.4519185672119,"Via Elio Chianesi, 53",Roma,Pubblici
Municipio,42.050361271225,12.963729378539,"Via Carlo Todini, 8","Cineto Romano",Pubblici
"Istituto ""Aristotele""(succursale)",41.8183069030251,12.4783867245369,"Via Comisso, 25",Roma,Pubblici
"Istituto ""Visconti""",41.8980491499842,12.4802779306365,"Piazza del Collegio Romano, 4",Roma,Pubblici
"Associazione sportiva ""La Ferratella""",41.8152130833139,12.4636366230011,"Via Salvore Quasimodo, 124",Roma,Privati
"Stabilimento balneare ""Il Pioniere""",41.4911188570727,12.5880011375732,"Passeggiata delle Sirene, 62",Anzio,Privati
"Piazza Cornelia, Centro Anziani ""Fogaccia""",41.9063332,12.3942463,"Piazza Cornelia, 86",Roma,Pubblici
"Stabilimento Balneare Sporting Beach",41.7062573786476,12.3365043819701,"Lungomare Amerigo Vespucci, 8 ",Roma,Pubblici
"Centro Anziani",41.9972107,12.4901643000001,"Viale Delle Galline Bianche, 105",Roma,Pubblici
"British School",41.7308838191831,12.2788639067459,"Via della Stazione Vecchia, 11A",Roma,Pubblici
"Parco Caffarella - Scuola Ada Negri",41.8697595960654,12.5215179079693,"Via Latina, 303",Roma,Pubblici
"Palazzo del Municipio",41.9301036550521,12.5186656632294,"Via Dire Daua, 11",Roma,Pubblici
"British School",41.730891825893,12.2787727116394,"Via della Stazione Vecchia, 11A",Roma,Pubblici
"Circolo Ricreativo Culturale",41.9147834,12.5613137,"Via del Frantoio, 9C",Roma,Pubblici
"CSA Via Carlo Avolio",41.7891371940961,12.443590880951,"Via Carlo Avolio, 60",Roma,Pubblici
"Giardini di Sant'Alessio",41.8816189242124,12.4818070883606,"Piazza di S. Alessio, 23",Roma,Pubblici
"Scuola ""Giuseppe Mazzini""",41.8919574447698,12.4913793662704,"Via delle Carine, 1",Roma,Pubblici
"Chiosco Bar area verde",41.8299736,12.4919602,"Via Duccio da buoninsegna, 115",Roma,Pubblici
"Scuola ""Pistelli Vaccari""",41.9193267252323,12.465598988955,"Via Monte Zebio, 35",Roma,Pubblici
"Bar Rosati",41.9169528717492,12.4603113029023,"via sabotino, 37",Roma,
"Scuola Bellingeri",41.935187224787,12.4177222000001,"Via andrea Verga, 2",Roma,Pubblici
"Parco dell'Isola Farnese",42.019055905814,12.3942056459202,"Via dell' isola farnese",Roma,Pubblici
"Delegazione di Cerenova",41.9819659847639,12.0540713141002,"Viale campo di mare",Cerveteri,
"Parrocchia Santi XII Apostoli",41.8976657,12.4830567,"Piazza Santi Apostoli","Roma ",Pubblici
"Parco Caffarella - Scuola Ada Negri",41.8694044472474,12.5218143643791,"Via Latina, 303",Roma,Pubblici
"Vigili del Fuoco capannelle",41.828185176036,12.5611429983949,"Piazza Scilla, 2",Roma,Pubblici
"Parco Ceribelli - centro anziani ""Casale Ceribelli""",41.8464135623304,12.4873144486878,"Viale Pico della Mirandola, 36",Roma,Pubblici
"Scuola dell' infanzia Fabio Montagna",41.9098646,12.6027048,"Via Federico Turano, 30",Roma,Pubblici
"Centro anziani Largo Spartaco",41.8594402,12.5527254,"Largo Spartaco, 13",Roma,
"Centro anziani ""La Romanina""",41.8470372204356,12.599375238623,"via giuseppe gregoraci, 140",Roma,
"Centro anziani ""Capasso""",41.8771841,12.4294608,"Via dei Capasso snc",Roma,
"Casa di riposo ""Bruno Buozzi""",41.8635104933433,12.5848425396729,"via di torrespaccata, 157",Roma,
"Oasi Verde - Dolce e Salato",41.9142136,12.5778401,"Viale Battista Bardanzellu, 136",Roma,Pubblici
"Centro Gamel",41.7400154,12.2805276,"Via delle Baleniere, 205",Roma,
"Vigili del Fuoco Capannelle",41.8266502,12.5635248,"Piazza Scilla, 2",Roma,Pubblici
"Vigili del Fuoco Capannelle",41.8276895107144,12.5609284216737,"Piazza Scilla, 2",Roma,Pubblici
"Villa Gordiani",41.8940871546642,12.5538946116394,"Via Prenestina, 351",Roma,Pubblici
"Villa Gordiani",41.8940392366306,12.5541091883606,"Via Prenestina, 351",Roma,Pubblici
"Oasi Verde - Dolce e Salato",41.914093842605,12.5771856410004,"Viale Battista Bardanzellu, 136",Roma,Pubblici
"Centro Anziani ""Lo Scariolante"" - Giardino Filippo Iaia",41.760042,12.3026767,"Piazza Gregoriopoli, 2",Roma,Pubblici
"Centro Anziani ""Lo Scariolante"" - Parco dei Ravennati",41.760042,12.3026659711639,"Piazza Gregoriopoli, 2",Roma,Pubblici
"Comitato di quartiere ""La Rustica""",41.9146910925521,12.6094909761963,"Via Dameta, 18",Roma,Pubblici
"Parco XXV Novembre 1884",41.7292269114147,12.2842755042298,"Via Pietro Rosa, 2",Roma,Pubblici
"Villa Lais",41.8759410277794,12.5303282607306,"Piazza Giovanni Cagliero, 20",Roma,
"Villa Lais",41.8759859636641,12.5316700357903,"Piazza Giovanni Cagliero, 20",Roma,Pubblici
"Parco Fabio Montagna",41.9107588423734,12.60199669682,"Via Federico Turano",Roma,Pubblici
"Centro sportivo Uisproma Work in Progress Centro Sportivo Bernardini",41.9205833157759,12.5564030915405,"Via Acqua Marcia, 51",Roma,Pubblici
"Rebibbia (Casa Circondariale Nuovo Complesso)",41.9306946,12.5739098232788,"Via Raffaele Majetti, 70",Roma,Pubblici
"Abbigliamento Cenci",41.8993372856799,12.4769581521149,"Piazza Della Rotonda, 77",Roma,Pubblici
"Rebibbia (Casa Circondariale Nuovo Complesso)",41.9306946,12.5741244,"Via Raffaele Majetti, 70",Roma,Pubblici
"Parco Villa De Sanctis - Centro sportivo Villa de Sanctis	",41.8779227463739,12.5522614367707,"Via dei Gordiani, 5",Roma,Pubblici
"Bar Free Holidays (Eden Bar)",41.8925014,12.5496423,"Viale Irpinia, 27",Roma,Pubblici
"Liceo Renzo Levi",41.8931730190575,12.4768434846384,"Via del Portico d'Ottavia, 73",Roma,Pubblici
"Ducati Caffè",41.8949025,12.4775334999999,"Via delle Botteghe Oscure, 35",Roma,Pubblici
"Scuola Mazzini",41.89200803147,12.4913004092448,"Via delle Carine, 2",Roma,Pubblici
"Libreria Kiryat Sefer",41.8918819,12.4774726000001,"Via del Tempio, 2",Roma,
"Scuola Media Wincklmann",41.9212453116305,12.5229789177736,"Piazza Winckelmann, 20",Roma,Pubblici
"Sede Municipio - politica",41.9354711794998,12.5345638201857,"Piazza Sempione, 15",Roma,Pubblici
"Sede Municipio - politica",41.9354173066524,12.5346724496508,"Piazza Sempione, 15",Roma,Pubblici
"scuola media G.B.Vico",41.9579933886581,12.5174646538632,"Piazza Filattiera, 84",Roma,Pubblici
"Villa Lazzaroni, sede Municipio",41.8701940507094,12.5231768575853,"Via Fortifiocca, 71",Roma,Pubblici
"Centro Anziani Villa Lazzaroni",41.8723660422372,12.5232945999826,"Via Appia Nuova, 522",Roma,Pubblici
"Sede Municipio IV",41.9869170062064,12.5642261368113,"via Flavio Andò, 12",Roma,Pubblici
"Sede Municipio IV",41.9666901,12.5216872999999,"Via Flavio Andò, 12",Roma,Pubblici
"Parco dell'UNRRA CASAS",41.9431242,12.584758,"Via San Benedetto del Tronto, 4",Roma,Pubblici
"Scuola ""120° circolo Mahatma Gandhi""",41.9378372478453,12.5853353846558,"Via Corinaldo, 41",Roma,Pubblici
"Municipio Roma V",41.8909072,12.5490368000001,"Via Torre Annunziata, 1",Roma,Pubblici
"CSA Quarticciolo",41.8891465093698,12.5789591116394,"Via Locorotondo, 31",Roma,Pubblici
"Scuola 184° Oscar Romero (non esiste più con questo nome)",41.8867306071688,12.6200819404928,"Via Calimera, 133",Roma,Pubblici
",I.S.S. E. Amaldi",41.8660146241393,12.6309188234393,"Via Domenico Parasacchi, 21",Roma,Pubblici
"I.S.S. E. Amaldi",41.8659382211993,12.6309831964556,"Via Domenico Parasacchi, 21",Roma,Pubblici
"Parco delle Valli - Mercatino delle valli",41.9388458187636,12.5255971153442,"Via Conca D'Oro, 143",Roma,
" Ristorante Lievito Madre",41.8513930755413,12.5600428263893,"Via Lemonia, 214",Roma,Pubblici
" Ristorante Lievito Madre",41.8513091629284,12.5600790362111,"Via Lemonia, 214",Roma,Pubblici
"Parco Fabio Montagna",41.9110622431896,12.6033485301635,"Via Federico Turano",Roma,Pubblici
"Centro Anziani Cinecittà Est",41.8511710580151,12.5947694504014,"Largo Zappalà, 2",Roma,Pubblici
"Mercatino delle valli ",41.9389096646268,12.5258546074097,"Via Conca D'Oro, 143",Roma,
"Fioraio Marco e Daniela",41.8596781147099,12.5647871577762,"Piazza S. Giovanni Bosco, 32",Roma,Pubblici
"Centro Anziani Nino Manfredi",41.8915032226569,12.5678073367707,"Via Emilio Chiovenda",Roma,Pubblici
"Batti il tuo Tempo",41.8534470470193,12.5701568105028,"Piazza di Cinecittà, 11",Roma,Pubblici
"Parco di Colli D'oro",41.9949391983561,12.4789078560974,"Via Valbondione",Roma,Pubblici
"Centro commerciale Cinecittà 2",41.8536900494999,12.5719373663005,"Via Palmiro Togliatti, 2",Roma,Pubblici
"Parco di Colli D'oro",41.9949870406166,12.478650364032,"Via Valbondione",Roma,Pubblici
"Scuola Bernardino Mastroianni",41.9168158495245,12.3532501914017,"Via Ponzone, 23",Roma,Pubblici
"
Bar Meeting",41.8322615,12.5821432,"Via Enzo Benedetto, 36",Roma,Pubblici
"succursale San Benedetto (ex Catullo)",41.8840304682111,12.5694150147152,"Via dei Faggi, 151",Roma,Pubblici
"Scuola di Musica Musicalmente",41.911978755878,12.5502924779272,"Via Tiburtina, 695",Roma,Pubblici
"Ufficio Anagrafico San Vittorino",41.913861951593,12.7893323932541,"via San Vittorino, 305",Roma,
"Bar Rosati",41.9100656179541,12.4761942915405,"Piazza del Popolo, 4",Roma,Pubblici
"Istituto Comprensivo Villaggio Comprensivo",41.9089024175827,12.6813153478852,"Via Del Fosso Dell'Osa, 505",Roma,Pubblici
"Centro Commerciale ""I Granai""",41.8369685261117,12.5032364134918,"via Mario Rigamonti, 100",Roma,
"Centro Commerciale ""I Granai""",41.8370005,12.5031398539672,"via Mario Rigamonti 100",Roma,Pubblici
"Centro Commerciale ""I Granai""",41.8370164869381,12.5034402613769,"via Mario Rigamonti 100",Roma,
"Sede Municipio Roma XI",41.8412910565587,12.4839577269836,"via Benedetto Croce 50",Roma,
"Sede Municipio Roma XI",41.841219120111,12.4838182521148,"via Benedetto Croce, 50",Roma,Pubblici
"Parco Caduti del Mare",41.8646876,12.4841235883432,"via Pullino, 71 ",Roma,Pubblici
"Centro commerciale Naturale, via Fonte Buono 111-113, Bar Halley",41.8482036167967,12.4864870834671,"via Fonte Buono, 111",Roma,
"S. M. della Pietà, Uff. Tecnico del Comune",41.9407227707541,12.4190684134918,"Piazza Santa Maria della Pietà 5",Roma,
"Scuola Paolo Stefanelli",41.9396284,12.4284905269836,"Via Giuseppe Taverna, 97",Roma,Pubblici
"Batti il tuo Tempo",41.8535543042956,12.5699093767212,"Piazza di Cinecittà, 11",Roma,Pubblici
" Museo di Archeologia per Roma",41.8526265,12.6187645,"Via Columbia ","Roma ",
"Ditta F.lli Colaiacomo",41.6529821,13.0395583,"Viale Roma",Montelanico,Pubblici
"Piazza Salvo D'Acquisto",41.9028513466197,12.1576912061325,"via serrenti 95",Fiumicino,Pubblici
"Istituto ""Mameli""(succursale)",41.9228726892939,12.4826279558197,"Via Pietro Antonio Micheli, 29",Roma,Pubblici
"Istituto superiore per la conservazione ed il restauro",41.8845603548083,12.4747920552254,"Via di San Michele, 23",Roma,Pubblici
Comune,41.8825301041647,12.9814610513733,"Via Santa Maria de Mattias","San Vito Romano",Pubblici
"Scuola Primaria",41.8057466,12.7379307,"Via Alfredo Seranti, 9",Montecompatri,Pubblici
"I.C. Monte Compatri (Frazione Laghetto) - Scuola secondaria di I° Grado",41.8477886603526,12.7345929504822,"Piazza Lago Regillo",Montecompatri,Pubblici
Parrocchia,42.0097567140719,12.9888700380288,"Piazza delle ville","Anticoli Corrado",Pubblici
"Istituto ""Caetani"" (succursale)",41.9353984,12.4640904,"Lungotevere Maresciallo Diaz, 20",Roma,
Municipio,41.9860312668745,12.661160421875,"Via Macchiavelli, 1 ","Fonte Nuova",
"Scuola dell'infanzia Molara",41.790118006133,12.7302620846558,"Via della Molara, 29",Montecompatri,Pubblici
"Scuola elementare e medie",42.1589513660083,12.4368314748688,"Via Romana, 29","Magliano Romano",Pubblici
Ostello,42.011000649838,12.9878467655373,"Via Olivella, 38","Anticoli Corrado",Pubblici
"Sporting Club Paradise",41.8349233357499,12.5724238629516,"Via delle Capannelle, 134",Roma,Privati
"Municipio - Polizia Municipale",42.0355918900674,12.6391078193741,"Piazza F. Zeri, 1",Mentana,Pubblici
Municipio,42.0948036728802,12.9087192935707,"Via Attorno Palazzo Borghese, 8",Percile,Pubblici
Municipio,41.9081830269985,12.9591461484795,"Piazza Municipio, 6",Pisoniano,Pubblici
"Edicola Quice",42.1380405516696,12.8074387202378,"Via della fontana, 42","Montorio Romano",Privati
"Scuola Media ",41.8055460078119,12.7385525042992,"Via Giovanni Felici, 14",Montecompatri,Pubblici
"Circolo Montecitorio A.S.D.",41.9337288194845,12.4890030435165,"Via dei Campi Sportivi, 5",Roma,Privati
"Circolo Montecitorio A.S.D.",41.9338806903435,12.4889628103813,"Via dei Campi Sportivi, 5",Roma,Privati
"Caserma Carabinieri ""Salvo D' Acquisto""",41.9468042488171,12.4813379427528,"Viale Tor di quinto, 119",Roma,Pubblici
"Biblioteca di Archeologia e Storia dell'Arte",41.8961219297911,12.4819184773155,"Piazza Venezia, 3",Roma,Pubblici
"Istituto ""Armando Diaz""",41.8875541192711,12.5202074752779,"Via Acireale, 8",Roma,Pubblici
"Palazzo Valentini",41.896362271753,12.4838570820007,"Via IV Novembre",Roma,Pubblici
"Istituto ""Leonardo Da Vinci - ",41.8939091249852,12.4905224048935,"Via Cavour, 258",Roma,Pubblici
"Istituto ""C. Colombo""",41.8962354876426,12.4901244504013,"Via Panisperna, 255",Roma,Pubblici
"Istituto ""Cattaneo"" succursale",41.8975076779413,12.4703766906075,"Corso Vittorio Emanuele, 217",Roma,Pubblici
"Istituto ""Virgilio"" succursale",41.8975276024364,12.4704485966975,"Corso Vittorio Emanuele, 217",Roma,Pubblici
"Istituto ""Socrate""",41.8656951,12.4931087,"Via Padre Reginaldo Giuliani, 15",Roma,Pubblici
"Istituto ""Roberto Rossellini""",41.8633088,12.4802342,"Via Libetta, 14",Roma,Pubblici
"Istituto ""CPIA 4 - IST. VIA CAVOUR EX LEONARDO DA VINCI""",41.9056958,12.5033496999999,"Via Palestro, 38",Roma,Pubblici
"Istituto ""Plinio Seniore""",41.9045979,12.4988501,"Via Montebello, 122",Roma,Pubblici
"Istituto ""Farnesina""",41.9410942787922,12.4743934264122,"Via Bartolomeo Gosio, 90",Roma,Pubblici
"Istituto ""Via delle Sette Chiese sede Rousseau""",41.8592215,12.5040845999999,"Via delle Sette Chiese, 259",Roma,Pubblici
"Istituto ""Edmondo De Amicis""",41.8776098,12.4763905,"Via Galvani, 6",Roma,Pubblici
"Ufficio Turistico",42.1371314503187,12.1026461413865,"Piazza Tubingen","Canale Monterano",Pubblici
"Istituto ""Virgilio""",41.8961761,12.4681855,"Via Giulia, 38",Roma,Pubblici
"Istituto ""Mamiani""",41.912616,12.4631730999999,"Viale delle Milizie, 30",Roma,Pubblici
"Istituto ""Alighieri""",41.9075917,12.4696590999999,"Via Ennio Quirino Visconti, 13",Roma,Pubblici
"Istituto ""Machiavelli""",41.8975253493351,12.5163931846557,"Via dei Sabelli, 86",Roma,Pubblici
"Istituto ""Montessori""",41.9135831,12.4955211,"Via Livenza, 8",Roma,Pubblici
"Istituto ""Pascal""",41.9362882463331,12.4644711185242,"Via dei Robilant, 2",Roma,Pubblici
Municipio,41.8082686701352,12.7371139220902,"Piazza del Mercato, 1",MonteCompatri,Pubblici
"Centro Anziani Quarto Miglio",41.8448043234571,12.5472766631947,"Via al quarto miglio,39",Roma,Pubblici
"Scuola Militare di Equitazione",42.1340481312146,12.7419006306884,SP26a,Montelibretti,
"Centro Militare di Equitazione",42.1339806,12.7419566,SP26a,Montelibretti,
"Centro Per l'Impiego",41.9153379,12.4040336,"Via Decio Azzolino, 7",Roma,
"Centro Anziani",41.8129048,12.4780962,"Via Enrico Pea, 20",Roma,Pubblici
"Associazione Culturale Casale Caletto",41.9190433796262,12.6040281627045,"Via di Cervara, 200",Roma,Pubblici
"Ufficio Tributi",41.5719237,12.5387756,"Largo Nuova California",Ardea,Pubblici
"Istituto ""Labriola""",41.7412027,12.2880726,"Via Capo Sperone, 50",Roma,
"Scuola Elementare Cristoforo Colombo",41.7299430717454,12.8249972331353,"Piazza Martiri Della Libertà, 1",Lariano,
"Castello Rocca di Cave",41.847028093462,12.945633,"Piazza della Torre","Rocca di Cave",
"Istituto Comprensivo",41.9607763,12.9392665,"Via Santa Liberata, 1",Ciciliano,
Comune,42.0188231,13.1079157,"Piazza Roma, 6","Camerata Nuova",
"Gay Center",41.8770814,12.4761667,"Via Nicola Zabaglia, 14",Roma,
"Cinema Adriano - via Cicerone",41.9060418678229,12.4694612312134,"Piazza Cavour, 22",Roma,
"Scuola Media Statale",42.1955651,12.5784377,"Via Aldo moro, 4","Civitella San Paolo",Pubblici
Municipio,41.8341723,12.7508823000001,"Piazza Vittorio Emanuele II",Colonna,
"Centro per l'Impiego Roma Ostia ",41.7394911,12.2540822999999,"Via Domenico Baffigo, 145",Roma,
"Parco regionale Appia Antica - Ex Cartiera",41.8678986326073,12.5013311408616,"Via Appia Antica, 42",Roma,Pubblici
"Centro Anziani",41.8820569,12.9796303000001,"Borgo Mario Tehodoli 	26","San Vito Romano",
"Istituto ""Isabella D' Este""",41.9616993493585,12.801430285389,"Largo Giovanna Baja, 9",Tivoli,Pubblici
"Scuola Quartararo, Via Portuense, 1491/93",41.8170865,12.3426965,"Via Portuense, 1491",Roma,
"Roma - Sede Municipio VIII",41.8609165374839,12.4861940619712,"Largo delle Sette Chiese, 23",Roma,
"Villa Torlonia - Propileo",41.9163538246214,12.5114226508915,"Via Nomentana, 68",Roma,
Municipio,41.9635070050209,12.7987559957008,"Piazza del Governo, 1",Tivoli,
"Istituto ""Baffi""",41.7642266043356,12.2287682872193,"Via Giorgio de Giorgis, 125",Fiumicino,Pubblici
"Istituto ""Baffi""",41.756993363237,12.2359303650818,"Via L. Bezzi, 51",Fiumicino,Pubblici
"Centro Anziani Tosti",41.6893595,12.7839855,"Via dei Volsci, 8",Velletri,Pubblici
"Istituto Comprensivo",42.1570406528851,11.907617974205,"Via Del Faggeto, 1",Allumiere,
"Centro Polifunzionale per i Giovani",42.3278652785142,13.4775991302572,"Via Geremia Properzi",L'Aquila,Pubblici
"Centro Polifunzionale per i Giovani",42.3278646,13.477611,"Via Geremia Properzi",L'Aquila,Pubblici
"Istituto ""Croce-Aleramo""",41.9279137,12.5746282,"Via S. Cannizzaro, 16",Roma,Pubblici
"Roma - Sede Municipio VIII",41.8609205327249,12.4861819920307,"Largo delle Sette Chiese, 23",Roma,
"Istituto ""Emilio Sereni""",41.8918491751499,12.6513563508179,"Via Prenestina, 1395",Roma,Pubblici
"""Istituto Cattaneo""",41.8288333,12.4918414,"Via Antonio Pisano, 9",Roma,
"Villa Torlonia - Centro Anziani",41.9111399716896,12.5125660142639,"Via Lorenzo Spallanzani, 1",Roma,Pubblici
"Biblioteca Comunale",41.7304635921085,13.0073027582275,"Via Leonardo da Vinci",Colleferro,
"Centro Anziani",42.1292462,12.1285444,"Largo IV Novembre, 6","Canale Monterano",
"Istituto ""Pellegrino Artusi""",41.8436913737068,12.5470071865082,"via san tarcisio 66",Roma,Pubblici
"Istituto ""Tor Carbone""",41.8124229137892,12.468811219574,"piazza elsa morante 2",Roma,Pubblici
"Istituto ""Montale""",41.8643227,12.4609605000001,"via ettore paladini 6",Roma,Pubblici
"Istituto ""John Fitzgerald Kennedy""",41.8865466,12.4651433,"via nicola fabrizi 7",Roma,Pubblici
"Università Roma TRE",41.8620331661985,12.4796737516767,"Via ostiense,169",Roma,Pubblici
"Cafè Gourmet",41.9095578,12.4512735000001,"Via Andrea Doria,46",Roma,
"Istituto ""Vittorio Gassman""",41.9080744,12.3978002,"Via Tommaso Prelà",Roma,Pubblici
"Istituto ""Bachelet-Einstein""",41.9066079576016,12.4045601494597,"Via Nazareth, 150",Roma,Pubblici
"Istituto ""TOR CARBONE""",41.8325717478464,12.5353762876969,"Via di Tor Carbone 53",Roma,Privati
"Ristorante Villa Celeste",42.059331,12.9996568,"Via Valeria, 146",Riofreddo,
"Green Bar",41.9098869374481,12.4492584693116,"Via Circonvallazione Trionfale ,4",Roma,Privati
"Parco Appia Antica",41.8701925640799,12.5244511,"Via di Vigna Fabbri",Roma,Pubblici
" Residenza Anziani Santa Lucia",42.1957735,12.5809829,"SSP Civitellese, KM  5.700","Civitella San Paolo",Pubblici
Onlus,41.9131953070236,12.504543582209,"Via Alessandria, 159",Roma,Pubblici
"
I.P.S.S.A.R. Ugo Tognazzi",41.6757619728476,12.7761404232788,"Viale salvo D'acquisto, 61",Velletri,Pubblici
"Biblioteca Comunale",41.9062483279943,12.9582385883606,"Via Piagge",Pisoniano,Pubblici
"IFO Istituti Fisioterapici Ospitalieri",41.8023137044,12.4498586306885,"Via Elio Chianesi, 53",Roma,Pubblici
"Villa Lazzaroni - Municipio",41.871068875573,12.5233800349182,"Via Tommaso Fortifiocca, 71",Roma,Pubblici
"Istituto ""Calamandrei""",41.9807624,12.4939428,"via carlo emery 97",Roma,Pubblici
"Istituto ""Stendhal""",41.9417132,12.4655564,"via cassia 726",Roma,Pubblici
"Istituto ""Domizia Lucilla""",41.9066214,12.4410525000001,"via domizia lucilla 76",Roma,Pubblici
"Istituto ""Einaudi""",41.8979105106069,12.4560215214785,"via santa maria alle fornaci 1",Roma,Pubblici
"Istituto ""Magarotto""",41.874232,12.3635439,"vicolo del casal lumbroso 129",Roma,Pubblici
"istituto ""Manara""",41.885162,12.4575105,"via basilio bricci 4",Roma,Pubblici
"IFO Istituti Fisioterapici Ospitalieri",41.80223372634,12.4493221888856,"Via Elio Chianesi, 53",Roma,
Comune,41.8872664975979,12.8934203061342,"Piazza Conti, 2",Poli,Pubblici
"Protezione Civile",41.887265,12.8934062245369,"Piazza Conti, 2",Poli,Pubblici
"Università Bracciano",42.1040613406987,12.1771663146804,"Piazza Mazzini",Bracciano,
Comune,41.9267561775527,13.2309270000001,"Piazza Italia, 1",Vallepietra,Pubblici
Spallanzani,41.8647134718138,12.4573653915405,"Via Portuense, 292",Roma,
"Centro per l'Impiego",41.729249,12.6611867,"Via San Francesco d'Assisi, 28 ","Albano Laziale",
"Castello Miramare",41.8751243041854,12.1777617548352,"Via Praia a Mare, 10",Fiumicino,Privati
Municipio,41.7197084445842,12.6703629043853,"Piazza San Nicola",Ariccia,Pubblici
Municipio,41.7197925296124,12.670486286,"Piazza San Nicola",Ariccia,Pubblici
Giardini,41.9164422382441,12.4640050380287,"Piazza Mazzini",Roma,Pubblici
"Scuola Oberdan",41.871708767405,12.4511386153442,"Largo Alessandrina Ravizza, 2",Roma,Pubblici
"Istituto Comprensivo La Giostra",41.8378076883271,12.5079815841309,"Via Grotta Perfetta, 524",Roma,Pubblici
"Istituto comprensivo La Giostra",41.8405698,12.501583,"Via Di grotta Perfetta, 524",Roma,Pubblici
"Viale Agosta",41.8908880729675,12.5578654600495,"Viale Agosta",Roma,Pubblici
"Comune ",41.7718537,12.2313854,"Piazza Grassi, 3",Fiumicino,Pubblici
Comune,41.7720271,12.236330817791,"Via Portuense, 2498",Fiumicino,Pubblici
"Auditorium della Conciliazione",41.9025688631914,12.4633103220901,"Via della Conciliazione, 4",Roma,
"Centro Anziani",41.6079691,12.5432585999999,"Via Dei tassi, 18",Ardea,Pubblici
Anagrafe,41.6104947,12.5461163,"Via della Croce, 3",Ardea,Pubblici
"Istituto ""Innocenzo XII"" (succursale)",41.4623648396436,12.6240123730164,"Via Nerone, 1",Anzio,Pubblici
Comune,41.60919,12.5452398,"Via Garibaldi, 5",Ardea,Pubblici
"Distaccamento Polizia locale",41.5628458,12.5585873,"Via Campo Di Carne",Ardea,Pubblici
"Scuola Elementare ""Innocenzo III""",41.6992397,13.0509211999999,"Via Roma, 73",Gavignano,Pubblici
"Centro Polivalente Anziani - Quartiere Empolitano",41.9566459,12.8024685,"Via degli Olivi, 2",Tivoli,Pubblici
"Stabilimento balneare ""Belvedere"" (Lavinio)",41.4930353,12.5871795,"Passeggiata delle Sirene, 28",Anzio,
"Palazzo Valentini",41.8963843,12.4840371,"Via Quattro Novembre, 119 ",Roma,
"Centro per l'impiego",42.0925063557592,11.8064705158691,"Via Lepanto 13",Civitavecchia,
"Ufficio Contact Center",41.7441181482013,12.9995929529869,"Via Casilina km52,200",Colleferro,Pubblici
"Sede Centrale Municipio XV",41.8490650329906,12.4521505705696,"Via Camillo Montalcini, 1",Roma,Pubblici
"Case Grifoni",41.9987306849466,12.0996856883432,"Piazza santa Maria, 6",Cerveteri,Pubblici
"Villa Borghese - Casino del Graziano",41.9170279,12.4868918,"Viale Giardino Zoologico",Roma,Pubblici
"Villa Borghese - Aranciera - Museo Carlo Bilotti",41.913335284388,12.4827801563446,"Viale Fiorello La Guardia, 6",Roma,Pubblici
"Villa Borghese - Aranciera - Museo Carlo Bilotti",41.9133193165286,12.4835258104507,"viale Fiorello La Guardia 6",Roma,Pubblici
"Villa Borghese - Meridiana",41.9149677,12.4905467,"Viale dell'Uccelleria ",Roma,Pubblici
"Villa Borghese - Meridiana",41.9149397569581,12.4906110730163,"Viale dell'Uccelleria",Roma,Pubblici
"Villa Borghese - Museo Canonica",41.9142202,12.486271,"Viale Pietro Canonica",Roma,Pubblici
"Villa Borghese - Museo Canonica",41.9141563294239,12.4862106502972,"Viale Pietro Canonica",Roma,Pubblici
"Villa Borghese - Museo Canonica",41.9143160057443,12.4863568306885,"Viale Pietro Canonica",Roma,Pubblici
"Villa Borghese - Casina Valadier",41.910774266153,12.4796594380286,"Piazza Bucarest",Roma,Pubblici
"Villa Ada - Servizio Giardini",41.9138395623677,12.4975230718277,"Via Salaria",Roma,Pubblici
"Villa Ada - Servizio Giardini",41.9139090060537,12.4974970411045,"Via Salaria",Roma,Pubblici
"Villa Torlonia - Casina delle civette",41.9176658,12.5137708,"Via Nomentana",Roma,Pubblici
"Villa Torlonia - Technotown",41.9123092,12.5109089,"Via Spallanzani",Roma,Pubblici
"Villa Torlonia - Technotown",41.9107144970481,12.5128600116568,"Via Spallanzani",Roma,Pubblici
"Villa Paganini",41.9167874,12.5094183,"Viale Marco Biagi",Roma,Pubblici
"Villa Paganini",41.9167854041258,12.5094290288362,"Viale Marco Biagi",Roma,Pubblici
"Torre Argentina - Largo Arenula",41.8951165,12.4763044,"Largo Arenula",Roma,Pubblici
"Villa Borghese - Casa del Cinema",41.9106701,12.4879182,"Viale della pineta",Roma,Pubblici
"Villa Borghese - Casa del Cinema",41.9106701,12.4878860134918,"Viale della pineta",Roma,Pubblici
"Villa Borghese - Casa del Cinema",41.9107180055545,12.4879396576721,"Viale della Pineta",Roma,Pubblici
"Villa Borghese - Casina Valadier",41.9107483173383,12.4797948895839,"Piazza Bucarest",Roma,Pubblici
"Villa Borghese - Casina Valadier",41.9107064,12.4797103999999,"Piazza Bucarest",Roma,Pubblici
"Parco Franceschetti - ""Giardino dei Demar""",41.8858038207787,12.5881801,"Via Davide Campari, 263",Roma,Pubblici
"Istituto ""Galileo Galilei""",42.1009575646468,11.7990221005249,"Via Immacolata 4",Civitavecchia,
"Istituto ""Marconi""",42.0875844546202,11.8108054810898,"Via Ciro Corradetti 2",Civitavecchia,Pubblici
"Stabilimento Balneare Sporting Beach",41.7040613415528,12.3416654386231,"Lungomare Amerigo Vespucci, 8",Roma,Pubblici
"Stabilimento Balneare Sporting Beach",41.7085147766291,12.3313657560059,"Lungomare Amerigo Vespucci, 8",Roma,Pubblici
"Istituto ""Paciolo""",42.1013458,12.1696434,"Via Piave 22",Bracciano,
"Istituto ""Ignazio Vian""",42.1014954074435,12.1659927210876,"Largo Cesare Pavese 1",Bracciano,
"Istituto ""Paciolo""",42.098938,12.1598707000001,"Via del Lecci 22",Bracciano,
"Istituto ""Guglielmotti""",42.085335,11.8079396000001,"Via Adige 1",Civitavecchia,
"Istituto ""Calamatta""",42.0951004,11.7923624,"Via Antonio da Sangallo 3",Civitavecchia,
"Parco Torresina - Associazione Vivere al Quartaccio",41.9253821,12.4020386,"Via del Podere Fiume, 61",Roma,Pubblici
"Istituto ""Giuseppe Di Vittorio""",41.9597269,12.0717488,"Via Federici",Ladispoli,
"Istituto ""Luigi Trafelli""",41.4594617,12.6518587,"Via Livatino,1",Nettuno,
"Istituto ""Loi""",41.4577305,12.6654914000001,"Vie Emanuela Loi,6",Nettuno,
"Villa Chigi asilo nido ""Nido di Villa Chigi""",41.9343388870408,12.5167625817535,"via Nicolo Piccinni, 60",Roma,Pubblici
"Istituto ""Chris Cappel College""",41.4621364,12.6267476,"Via Antium,5",Anzio,
"Scuola Primaria ""Cesare Battisti""",41.8616535,12.4888039,"Piazza Damiano Sauli, 1",Roma,Pubblici
"Centro Aggregazione M.P.R.",41.8912559669493,12.5276040951065,"Via Prenestina, 106",Roma,Pubblici
"Istituto ""George Boole"" ex Cartesio",41.8241623,12.9654075999999,"via Pietro Nenni ",Genazzano,Pubblici
"Istituto ""Marco Gavio Apicio""",41.4495955,12.6197253,"via nerone 1",Anzio,
"Istituto ""Largo Brodolini""",41.6574219048564,12.4993302037049,"Largo Brodolini ",Pomezia,Pubblici
"Istituto ""Aristofane""",41.9526486223286,12.5314626216737,"Via Monte Resegone 3",Roma,Pubblici
"Villa Altieri",41.8909941741407,12.507649427539,"Viale Manzoni 47",Roma,
"Istituto ""Nomentano""",41.9517426631819,12.5423987502929,"Via della Bufalotta 229",Roma,
Auditorium,41.6086002245613,13.0821906000001,"Piazzale Dei Carpini","Carpineto Romano",Pubblici
Auditorium,41.6086644,13.0821906,"Piazzale Dei Carpini","Carpineto Romano",Pubblici
Auditorium,41.608616268427,13.0822764306885,"Piazzale dei Carpini, 41","Carpineto Romano",Pubblici
"Scuola Infanzia e Primaria Taddeide",42.100538939531,12.5061858404755,"Via Taddeide",Riano,
"Scuola Aldo Moro",41.8739152063028,13.0677366332741,"Largo Don Umberto Terenzi",Roiate,
"Istituto ""Matteucci""",41.952541779347,12.5367060506439,"Via delle Vigne Nuove 262",Roma,
"Istituto ""Matteucci""",41.9526576407855,12.5370303768464,"Via delle Vigne Nuove 262",Roma,
Municipio,41.87412299302,13.0643880411045,"Via della Chiesa, 7",Roiate,
Municipio,42.0318567432376,12.923967970858,"piazza Europa Unita, 1",Mandela,
"Biblioteca Comunale",41.9650437913287,12.7976503816146,"Via Tempio D' Ercole",Tivoli,Pubblici
"Centro Anziani ""Casa delle culture e delle generazioni""",41.8902789,12.5326709999999,"Via Isidoro di Carace, snc",Roma,
"Istituto Comprensivo Ardea 1",41.6080974520692,12.5425934121643,"Via Laurentina Km 32,500",Ardea,
"Istituto Comprensivo ",41.6080653640758,12.5428509042297,"Via Lazio, snc",Ardea,
"Tabaccheria Mille Idee",42.1413781,12.8041783,"Piazza Risorgimento, 39","Montorio Romano",
"Punto Informazioni Turistiche",41.7468693542336,12.6489337662705,"Via Massimo D' Azeglio","Castel Gandolfo",
"La Famiglia Market",42.2554986049398,12.5996244865082,"Piazza Umberto I, 7",Nazzano,
"Biblioteca Comunale",41.838194,12.8308964,"Piazza Indipendenza",Zagarolo,
"Istituto Comprensivo Ardea 3",41.615315,12.5160913,"Via Verona",Ardea,
"Centro Sportivo Vigor Perconti",41.9060913384074,12.5651117232788,"Via Grotta di Gregna, 100",Roma,
"Stardust Village",41.8187821118069,12.4454759385536,"Via di decima, 72",Roma,Pubblici
"Parco Appia Antica",41.8680789966397,12.5013847850419,"Via Appia Antica, 42",Roma,Pubblici
"Casa dell'Architettura",41.8977227777547,12.5028955019218,"Piazza Manfredo Fanti, 47",Roma,Pubblici
"Ristorante ""Le Papere""",42.1109582306293,12.1800579085983,"lungolago G. Argenti, 20",Bracciano,Privati
"Piazza Venezia",41.8959126958648,12.4825457355821,"Piazza Venezia",Roma,Pubblici
"Villa Leopardi - Centro anziani Fili D'argento",41.9259789068716,12.5217833521842,"Via Makallè, 9",Roma,Pubblici
Comune,41.933591131036,12.9934515005943,"Piazza degli Eroi",Gerano,
"Supermercato GESPAC Srl",41.850007,12.4912416,"Via Attilio Ambrosini, 183",Roma,Pubblici
"Municipio - Sala Consiliare",41.7291422,12.6589323000001,"Piazza della Costituente, 1","Albano Laziale",
Municipio,42.1400606996883,12.5402000190491,"Piazza San Luca, 1",Capena,
Municipio,42.1400527441818,12.5402590276474,"Piazza San Luca, 1",Capena,
"Biblioteca Comunale",42.1591803852094,12.237146909262,"Via B. Francesconi","Trevignano Romano",
Municipio,42.2285670398841,12.5971168423278,"Via Mazzini, 4",Nazzano,
"Circolo Sportivo Olgiata Sport Club ",42.0233463752264,12.3740582447052,"Via Guido Cantini, 4",Roma,
Municipio,42.1560343627434,12.2460900656067,"Piazza Vittorio Emanuele III, 1","Trevignano Romano",
"Museo Civico Etrusco Romano",42.1561282607318,12.2462809767212,"Piazza Vittorio Emanuele III, 1","Trevignano Romano",Pubblici
Municipio,42.2285615781248,12.5972455883606,"Via Mazzini, 4",Nazzano,
"Il Chiosco - Chalet del Lago",42.1560359466901,12.2450635616547,"Via della Rena, 10","Trevignano Romano",
"Bar dello Sport",41.8859663,13.1009676,"Piazza Castellana, 5",Affile,Privati
"Biblioteca Comunale",42.0994233,12.1758612,"Piazza dei Pasqualetti ",Bracciano,
Municipio,41.8839941799363,13.0971204662704,"Via Luigi Naddeo, 1",Affile,
"Istituto Comprensivo Statale Civitella S. Paolo - Palestra",42.1969276407974,12.5796279457118,"Via Umberto I","Civitella San Paolo",Pubblici
"Parco dei Monti Lucretili",42.0710411,12.7634035,"Via A. Petrocchi, 11","Palombara Sabina",Pubblici
"Ponte Milvio",41.9369363759865,12.4663810583359,"Piazzale Ponte Milvio",Roma,Pubblici
"Ponte Milvio",41.9369882523084,12.4662147613769,"Piazzale Ponte Milvio",Roma,Pubblici
"Ponte Milvio",41.9370600809923,12.4660967441803,"Piazzale Ponte Milvio",Roma,Pubblici
"CSA A.Talenti",41.9472158625174,12.5513941576721,"Via Renato Fucini, 265 bis",Roma,Pubblici
"Città Metropolitana di Roma Capitale",41.8174496383734,12.4563191515206,"Viale Giorgio Ribotta, 41",Roma,Pubblici
"Villa Pamphili - Centro anziani Bel Respiro",41.8818826770715,12.4412711656066,"Via Vitellia 104",Roma,Pubblici
"Villa Pamphili - Centro anziani Bel Respiro",41.8818629081191,12.4413006699058,"Via Vitellia 104",Roma,Pubblici
"Villa Pamphili - Centro anziani Bel Respiro",41.8818600839825,12.4412523901435,"Via Vitellia 104",Roma,Pubblici
Municipio,41.727529,12.8329308,"Piazza Sant'Eurosia, 1",Lariano,
"Istituto ""Sandro Pertini""",41.9620106594921,12.0680193527954,"Piazzale Nazario Sauro snc",Ladispoli,
"Ospedale San Filippo Neri - Rx Angiografia",41.9470790579695,12.4153292582664,"Via Giovanni Martinotti, 20",Roma,Pubblici
"Centro anziani Primavalle",41.9200994954138,12.4146649753416,"Via Ludovico Jacobini, 7",Roma,Pubblici
"Centro Anziani Torvajanica",41.6193991,12.4667254,"Via Gran Bretagna, 42",Pomezia,Pubblici
"Biblioteca Comunale",42.0346951507596,11.8635041920654,"Via Aurelia, 310","Santa Marinella",Pubblici
Municipio,41.8061135893148,12.6801616269836,"Piazza Marconi",Frascati,Pubblici
"Ospedale San Filippo Neri - sala d'attesa rx radiografia",41.9469434028158,12.4155894325409,"Via Martinotti, 20",Roma,Pubblici
"Stardust Village",41.8188517315759,12.4454303410004,"Via di decima, 72",Roma,Pubblici
"Istituto "" Farnesina """,41.9444084,12.4621669000001,"Via dei Giuochi Istmici 64",Roma,
"Bocca della Verità",41.8880215121803,12.4827963020607,"Piazza Bocca della Verità",Roma,Pubblici
"Bocca della Verità",41.8879049801445,12.4828387928681,"Piazza Bocca della Verità",Roma,Pubblici
"Bocca della Verità",41.8877683210747,12.4827077891632,"Piazza Bocca della Verità",Roma,Pubblici
"Istituto ""Maffeo Pantaleone""",41.8105974,12.6801829,"Via Brigida Postorino, 27",Frascati,
"Bocca della Verità",41.8878172243189,12.4825515787124,"Piazza Bocca della Verità",Roma,Pubblici
"Bocca della Verità",41.8881806372399,12.4824925701141,"Piazza Bocca della Verità",Roma,Pubblici
"Istituto ""Vallauri""",41.6764184517666,12.7767813748687,"Via Salvo D'Acquisto 37",Velletri,
Comune,41.8820824512941,13.0289378994751,"Piazza del Municipio, 9",Bellegra,
Municipio,41.9636810447459,12.7990571883606,"Piazza del Governo,1",Tivoli,Pubblici
"Centro Commerciale Euroma 2",41.8170854,12.4594755000001,"Viale Oceano Pacifico, 83",Roma,Pubblici
"Centro Commerciale Euroma 2",41.8167655609216,12.4597115343934,"Viale Oceano Pacifico, 83",Roma,
"Centro Commerciale Euroma 2",41.817053416164,12.4600763148194,"Viale Oceano Pacifico, 83",Roma,
"IFO Istituti Fisioterapici Ospitalieri",41.8023257011004,12.4502207289055,"Via Elio Chianesi, 53",Roma,Pubblici
"Casale ex Mulino",41.8652589562417,12.516536852848,"Via della Caffarella, 23",Roma,Pubblici
"Bar Casa Comune",41.9430011503533,12.083918777246,"Lungomare marina di palo laziale",Ladispoli,Privati
"Istituto Maffeo Pantaleoni - Sede Succursale",41.7969441,12.68269,"Via XXIV Maggio,73 ",Grottaferrata,
"ASL ROMA D VEGA",41.7274910667247,12.2936676337642,"Viale Vega, 3",Roma,
"ASL ROMA D PASSERONI",41.7287391208404,12.2997112481628,"Via Giancarlo Passeroni, 28",Roma,
"ASL ROMA D ACILIA",41.7845432971357,12.3800513091926,"Via Casal Bernocchi, 61",Roma,
"ASL ROMA D ACILIA",41.7845199001072,12.380126411045,"Via Casal Bernocchi, 61",Roma,
"ASL ROMA D QUADRELLI",41.8486559241793,12.4110995925903,"Largo Emilio Quadrelli, 5",Roma,
"ASL ROMA D OSTIA",41.7330776597309,12.2668015037049,"Lungomare Paolo Toscanelli, 230",Roma,
"ASL ROMA D VEGA",41.7275647302864,12.293540228836,"Viale Vega, 3",Roma,
"ASL ROMA D ORTI",41.7718269445999,12.2332566785736,"Via degli Orti, 10",Roma,
"ASL ROMA D FIUMICINO",41.7642297307415,12.238037635582,"Via Coni Zugna, 173",Roma,
"ASL ROMA D PALIDORO",41.9045631879669,12.1642904957703,"Via San Carlo in Palidoro, 10",Fiumicino,
"ASL ROMA D CONSOLATA",41.8768475500629,12.4218846729469,"Via della Consolata, 52",Roma,
"ASL ROMA D FREGENE",41.8592532,12.2044521,"Via della Pineta di Fregene, 76",Fiumicino,
"ASL ROMA D OSPEDALE GB GRASSI",41.727982456991,12.2999580113922,"Via Giancarlo Passeroni, 28",Roma,
"ASL ROMA D PASSERONI",41.7285029145638,12.2995234935318,"Via Giancarlo Passeroni, 28",Roma,
"ASL ROMA D RAMAZZINI",41.8631382,12.4511489,"Via Bernardino Ramazzini, 31",Roma,
"ASL Roma D",41.7641849712821,12.2381663816147,"Via Coni Zugna, 173",Fiumicino,
"ASL ROMA D OSTIA",41.7332425961639,12.2664528165329,"Lungomare Paolo Toscanelli, 230",Roma,
"Parco Arcobaleno - Biblioteca Sandro Onofri",41.7756763221198,12.3479692514511,"Via Umberto Lilloni,39",Roma,
"Municipio - Giardini",42.1491116079858,11.9376698913322,"Piazza Vittorio Veneto, 12",Tolfa,Pubblici
"Sede municipio, URP",41.8942084564684,12.5741740742744,"Via Prenestina, 510",Roma,Pubblici
"Istituto superiore per la conservazione ed il restauro - Biblioteca",41.8846107999689,12.4749771276474,"Via di San Michele, 23",Roma,Pubblici
"Acquario Romano",41.8979482407542,12.5027886074097,"Piazza Manfredo Fanti, 47",Roma,Pubblici
"Centro Per L'impiego",41.8559666718918,12.5797203312828,"Via Rolando Vignali, 14",Roma,Pubblici
"Scuderie Estensi",41.9609772508494,12.7969160178604,"Piazza Giuseppe Garibaldi",Tivoli,Pubblici
"Biblioteca Comunale",41.6513617377028,13.0404089288361,"Via Corte Vecchia, 27",Montelanico,Pubblici
"Parco Residence",41.8508731291819,13.1729220851806,"Via Icilio Mancini, 14","Arcinazzo Romano",Privati
"Vigili del Fuoco Capannelle",41.8274184068673,12.5607917658539,"Piazza Scilla, 2",Roma,Pubblici
"Easy Med2003 srl",41.8353887979949,12.5846107349182,"Via Falconara Albanese, 22",Roma,Pubblici
"Biblioteca Comunale Casa dei Bimbi",41.8519177612523,12.5923487187713,"Via Libero Leonardi, 48 ",Roma,Pubblici
"Stabilimento ""Ezio alla Torretta""",41.967549450879,12.0407015915405,"Lungomare dei Navigatori Etruschi, 3",Cerveteri,Privati
"Palazzo Valentini",41.8964940946378,12.4844541399987,"Via IV Novembre, 119",Roma,Pubblici
"Centro Anziani ""Castello della Cecchignola""",41.8146103289366,12.5071886177909,"Via Abigaille Zanetta, 69",Roma,Pubblici
"Ristorante Ai Spaghettari",41.8876090550168,12.4701125674591,"Piazza di San Cosimato, 58",Roma,Privati
"Bibliopoint Nomentano ",41.9524214413122,12.5425718108368,"Via della Bufalotta, 229",Roma,Pubblici
"Istituto ""Pacinotti"" (succursale)",41.9631359817638,12.5174940148194,"Via Gennaro Pasquariello, 27",Roma,Pubblici
"Trattoria ""Sor Paiolo""",41.8541133388177,13.1619606265472,"Via Sublacense, km 29,900","Arcinazzo Romano",Privati
"Acquario Romano",41.8977805376182,12.5026357214958,"Piazza Manfredo Fanti, 47",Roma,Pubblici
Comune,42.1006545063117,13.0063310108368,"Piazza delle Peschiera","Vivaro Romano",Pubblici
"Biblioteca Comunale",41.7776324722167,12.9161735508568,"Via del Broglio, 1",Valmontone,Pubblici
"C.S.A Mario Roma",41.8444479194908,12.4402374301635,"Via Piero Calamandrei, 95",Roma,Pubblici
"Parco Ceribelli - centro anziani ""Casale Ceribelli""",41.8462542884532,12.4870820750076,"Via Pico della Mirandola, 36",Roma,Pubblici
"Fori Imperiali",41.8947321539782,12.4854124285582,"Viale dei Fori Imperiali",Roma,Pubblici
"Largo Agosta",41.8917504461144,12.5578744755326,"Largo Agosta",Roma,Pubblici
"Scuola d'Arte Cinematografica ""Gian Maria Volonté""",41.8425453187574,12.4580640925903,"Via Greve, 61",Roma,Pubblici
"Piazza di Monte Citorio",41.9005458656862,12.4785667423279,"Piazza di Montecitorio, 121",Roma,Pubblici
"Biblioteca Comunale ""Alessandro Cialdi""     ",42.0947338342202,11.7909312583012,"Piazza Calamatta,18",Civitavecchia,Pubblici
"Biblioteca Comunale ""Alessandro Cialdi""",42.0946085434124,11.7911694221249,"Piazza Calamatta,18",Civitavecchia,Pubblici
"Parco Arcobaleno",42.054979215031,12.6183027693462,"via J.F. Kennedy, 47",Monterotondo,Pubblici
"Scuola Materna",41.8057233950355,12.7423060767038,"Via Antonio Rosmini, 5",MonteCompatri,Pubblici
"Istituto Comprensivo ""Borgoncini Duca""",41.8944646626607,12.4495205571473,"Via San Silverio, 5",Roma,Pubblici
"Parco Tor Sapienza, impianto comunale ""Michele Testa""",41.8992077906619,12.5897964174744,"Via Filippo De Pisis, 30",Roma,Pubblici
"Piazza Vittorio Emanuele",42.1085736858507,12.8306548515205,"Piazza Vittorio Emanuele",Monteflavio,Pubblici
